{
  "office/estate_agent|Allen & Harris": {
    "locationSet": {"include": ["gb"]},
    "tags": {
      "brand": "Allen & Harris",
      "brand:wikidata": "Q81856601",
      "name": "Allen & Harris",
      "office": "estate_agent"
    }
  },
  "office/estate_agent|Bagshaws Residential": {
    "locationSet": {"include": ["gb"]},
    "tags": {
      "brand": "Bagshaws Residential",
      "brand:wikidata": "Q81859084",
      "name": "Bagshaws Residential",
      "office": "estate_agent"
    }
  },
  "office/estate_agent|Bairstow Eves": {
    "locationSet": {"include": ["gb"]},
    "tags": {
      "brand": "Bairstow Eves",
      "brand:wikidata": "Q81074787",
      "name": "Bairstow Eves",
      "office": "estate_agent"
    }
  },
  "office/estate_agent|Barnard Marcus": {
    "locationSet": {"include": ["gb"]},
    "tags": {
      "brand": "Barnard Marcus",
      "brand:wikidata": "Q81860444",
      "name": "Barnard Marcus",
      "office": "estate_agent"
    }
  },
  "office/estate_agent|Bradleys": {
    "locationSet": {"include": ["gb"]},
    "tags": {
      "brand": "Bradleys",
      "brand:wikidata": "Q83738286",
      "name": "Bradleys",
      "office": "estate_agent"
    }
  },
  "office/estate_agent|Brown & Merry": {
    "locationSet": {"include": ["gb"]},
    "tags": {
      "brand": "Brown & Merry",
      "brand:wikidata": "Q81859714",
      "name": "Brown & Merry",
      "office": "estate_agent"
    }
  },
  "office/estate_agent|Century 21": {
    "locationSet": {"include": ["001"]},
    "matchNames": ["century 21 real estate"],
    "nomatch": [
      "shop/department_store|Century 21"
    ],
    "tags": {
      "brand": "Century 21",
      "brand:wikidata": "Q1054480",
      "brand:wikipedia": "en:Century 21 (real estate)",
      "name": "Century 21",
      "office": "estate_agent"
    }
  },
  "office/estate_agent|Coldwell Banker": {
    "locationSet": {"include": ["001"]},
    "matchNames": ["coldwell banker real estate"],
    "tags": {
      "brand": "Coldwell Banker",
      "brand:wikidata": "Q738853",
      "brand:wikipedia": "en:Coldwell Banker",
      "name": "Coldwell Banker",
      "office": "estate_agent"
    }
  },
  "office/estate_agent|Connells": {
    "locationSet": {"include": ["gb"]},
    "tags": {
      "brand": "Connells",
      "brand:wikidata": "Q5161738",
      "brand:wikipedia": "en:Connells Group",
      "name": "Connells",
      "office": "estate_agent"
    }
  },
  "office/estate_agent|Engel & Völkers": {
    "locationSet": {"include": ["001"]},
    "tags": {
      "brand": "Engel & Völkers",
      "brand:wikidata": "Q1341765",
      "brand:wikipedia": "en:Engel & Völkers",
      "name": "Engel & Völkers",
      "office": "estate_agent"
    }
  },
  "office/estate_agent|Foncia": {
    "locationSet": {"include": ["fr"]},
    "tags": {
      "brand": "Foncia",
      "brand:wikidata": "Q1435638",
      "brand:wikipedia": "fr:Foncia",
      "name": "Foncia",
      "office": "estate_agent"
    }
  },
  "office/estate_agent|Fox & Sons": {
    "locationSet": {"include": ["gb"]},
    "tags": {
      "brand": "Fox & Sons",
      "brand:wikidata": "Q81855298",
      "name": "Fox & Sons",
      "office": "estate_agent"
    }
  },
  "office/estate_agent|Foxtons": {
    "locationSet": {"include": ["gb"]},
    "tags": {
      "brand": "Foxtons",
      "brand:wikidata": "Q5477251",
      "brand:wikipedia": "en:Foxtons",
      "name": "Foxtons",
      "office": "estate_agent"
    }
  },
  "office/estate_agent|Greenslade Taylor Hunt": {
    "locationSet": {"include": ["gb"]},
    "matchNames": ["gth"],
    "tags": {
      "brand": "Greenslade Taylor Hunt",
      "brand:wikidata": "Q81052826",
      "name": "Greenslade Taylor Hunt",
      "office": "estate_agent"
    }
  },
  "office/estate_agent|Guy Hoquet": {
    "locationSet": {"include": ["fr"]},
    "tags": {
      "brand": "Guy Hoquet",
      "brand:wikidata": "Q25383970",
      "brand:wikipedia": "fr:Guy Hoquet l'immobilier",
      "name": "Guy Hoquet",
      "office": "estate_agent"
    }
  },
  "office/estate_agent|Haart": {
    "locationSet": {"include": ["gb"]},
    "tags": {
      "brand": "Haart",
      "brand:wikidata": "Q75006731",
      "brand:wikipedia": "en: Spicerhaart",
      "name": "Haart",
      "office": "estate_agent"
    }
  },
  "office/estate_agent|Hamptons International": {
    "locationSet": {"include": ["gb"]},
    "matchNames": [
      "hamptons international lettings",
      "hamptons international sales"
    ],
    "tags": {
      "brand": "Hamptons International",
      "brand:wikidata": "Q5646350",
      "brand:wikipedia": "en:Hamptons International",
      "name": "Hamptons International",
      "office": "estate_agent",
      "short_name": "Hamptons"
    }
  },
  "office/estate_agent|Harcourts": {
    "locationSet": {"include": ["001"]},
    "tags": {
      "brand": "Harcourts",
      "brand:wikidata": "Q5655056",
      "brand:wikipedia": "en:Harcourts International",
      "name": "Harcourts",
      "office": "estate_agent"
    }
  },
  "office/estate_agent|John L. Scott": {
    "locationSet": {"include": ["us"]},
    "tags": {
      "brand": "John L. Scott",
      "brand:wikidata": "Q6243687",
      "brand:wikipedia": "en:John L. Scott",
      "name": "John L. Scott",
      "office": "estate_agent"
    }
  },
  "office/estate_agent|Jones & Chapman": {
    "locationSet": {"include": ["gb"]},
    "tags": {
      "brand": "Jones & Chapman",
      "brand:wikidata": "Q81858007",
      "name": "Jones & Chapman",
      "office": "estate_agent"
    }
  },
  "office/estate_agent|Knight Frank": {
    "locationSet": {"include": ["001"]},
    "tags": {
      "brand": "Knight Frank",
      "brand:wikidata": "Q3197998",
      "brand:wikipedia": "en:Knight Frank",
      "name": "Knight Frank",
      "office": "estate_agent"
    }
  },
  "office/estate_agent|Laforêt": {
    "locationSet": {"include": ["fr"]},
    "tags": {
      "brand": "Laforêt",
      "brand:wikidata": "Q56310946",
      "brand:wikipedia": "fr:Laforêt (immobilier)",
      "name": "Laforêt",
      "office": "estate_agent"
    }
  },
  "office/estate_agent|Manners & Harrison": {
    "locationSet": {"include": ["gb"]},
    "tags": {
      "brand": "Manners & Harrison",
      "brand:wikidata": "Q81857241",
      "name": "Manners & Harrison",
      "office": "estate_agent"
    }
  },
  "office/estate_agent|Martin & Co": {
    "locationSet": {"include": ["gb"]},
    "tags": {
      "brand": "Martin & Co",
      "brand:wikidata": "Q81066918",
      "name": "Martin & Co",
      "office": "estate_agent"
    }
  },
  "office/estate_agent|Mayfair Town & Country": {
    "locationSet": {"include": ["gb"]},
    "tags": {
      "brand": "Mayfair Town & Country",
      "brand:wikidata": "Q90269289",
      "name": "Mayfair Town & Country",
      "office": "estate_agent"
    }
  },
  "office/estate_agent|Orpi": {
    "locationSet": {"include": ["fr"]},
    "tags": {
      "brand": "Orpi",
      "brand:wikidata": "Q3356080",
      "brand:wikipedia": "fr:Organisation régionale des professionnels de l'immobilier",
      "name": "Orpi",
      "office": "estate_agent"
    }
  },
  "office/estate_agent|Palmer Snell": {
    "locationSet": {"include": ["gb"]},
    "tags": {
      "brand": "Palmer Snell",
      "brand:wikidata": "Q81068923",
      "name": "Palmer Snell",
      "office": "estate_agent"
    }
  },
  "office/estate_agent|RE/MAX": {
    "locationSet": {"include": ["001"]},
    "tags": {
      "brand": "RE/MAX",
      "brand:wikidata": "Q965845",
      "brand:wikipedia": "en:RE/MAX",
      "name": "RE/MAX",
      "office": "estate_agent"
    }
  },
  "office/estate_agent|Ray White": {
    "locationSet": {"include": ["au", "nz"]},
    "tags": {
      "brand": "Ray White",
      "brand:wikidata": "Q81077729",
      "name": "Ray White",
      "office": "estate_agent"
    }
  },
  "office/estate_agent|Roger Platt": {
    "locationSet": {"include": ["gb"]},
    "tags": {
      "brand": "Roger Platt",
      "brand:wikidata": "Q81859999",
      "name": "Roger Platt",
      "office": "estate_agent"
    }
  },
  "office/estate_agent|Royal LePage": {
    "locationSet": {"include": ["ca"]},
    "tags": {
      "brand": "Royal LePage",
      "brand:wikidata": "Q7374385",
      "brand:wikipedia": "en:Royal LePage",
      "name": "Royal LePage",
      "office": "estate_agent"
    }
  },
  "office/estate_agent|Shipways": {
    "locationSet": {"include": ["gb"]},
    "tags": {
      "brand": "Shipways",
      "brand:wikidata": "Q81859397",
      "name": "Shipways",
      "office": "estate_agent"
    }
  },
  "office/estate_agent|Square Habitat": {
    "locationSet": {"include": ["fr"]},
    "tags": {
      "brand": "Square Habitat",
      "brand:wikidata": "Q64027038",
      "brand:wikipedia": "fr:Square Habitat",
      "name": "Square Habitat",
      "office": "estate_agent"
    }
  },
  "office/estate_agent|Stags": {
    "locationSet": {"include": ["gb"]},
    "tags": {
      "brand": "Stags",
      "brand:wikidata": "Q91028631",
      "name": "Stags",
      "office": "estate_agent"
    }
  },
  "office/estate_agent|Stirling Ackroyd": {
    "locationSet": {"include": ["gb"]},
    "tags": {
      "brand": "Stirling Ackroyd",
      "brand:wikidata": "Q81062228",
      "name": "Stirling Ackroyd",
      "office": "estate_agent"
    }
  },
  "office/estate_agent|Strutt & Parker": {
    "locationSet": {"include": ["gb"]},
    "tags": {
      "brand": "Strutt & Parker",
      "brand:wikidata": "Q7625458",
      "name": "Strutt & Parker",
      "office": "estate_agent"
    }
  },
  "office/estate_agent|Swetenhams": {
    "locationSet": {"include": ["gb"]},
    "tags": {
      "brand": "Swetenhams",
      "brand:wikidata": "Q81858340",
      "name": "Swetenhams",
      "office": "estate_agent"
    }
  },
  "office/estate_agent|Symonds & Sampson": {
    "locationSet": {"include": ["gb"]},
    "tags": {
      "brand": "Symonds & Sampson",
      "brand:wikidata": "Q90262955",
      "name": "Symonds & Sampson",
      "office": "estate_agent"
    }
  },
  "office/estate_agent|Taylors": {
    "locationSet": {"include": ["gb"]},
    "tags": {
      "brand": "Taylors",
      "brand:wikidata": "Q94579182",
      "name": "Taylors",
      "office": "estate_agent"
    }
  },
  "office/estate_agent|Tecnocasa": {
    "locationSet": {
      "include": ["es", "it", "pl"]
    },
    "tags": {
      "brand": "Tecnocasa",
      "brand:wikidata": "Q2399658",
      "brand:wikipedia": "de:Tecnocasa",
      "name": "Tecnocasa",
      "office": "estate_agent"
    }
  },
  "office/estate_agent|Townends": {
    "locationSet": {"include": ["gb"]},
    "tags": {
      "brand": "Townends",
      "brand:wikidata": "Q81061275",
      "name": "Townends",
      "office": "estate_agent"
    }
  },
  "office/estate_agent|Webbers": {
    "locationSet": {"include": ["gb"]},
    "tags": {
      "brand": "Webbers",
      "brand:wikidata": "Q81068176",
      "name": "Webbers",
      "office": "estate_agent"
    }
  },
  "office/estate_agent|William H. Brown": {
    "locationSet": {"include": ["gb"]},
    "tags": {
      "brand": "William H. Brown",
      "brand:wikidata": "Q81787271",
      "name": "William H. Brown",
      "office": "estate_agent"
    }
  },
  "office/estate_agent|Your Move": {
    "locationSet": {"include": ["gb"]},
    "tags": {
      "brand": "Your Move",
      "brand:wikidata": "Q81078416",
      "name": "Your Move",
      "office": "estate_agent"
    }
  },
  "office/estate_agent|アパマンショップ": {
    "locationSet": {"include": ["jp"]},
    "tags": {
      "brand": "アパマンショップ",
      "brand:en": "Apaman Shop",
      "brand:ja": "アパマンショップ",
      "brand:wikidata": "Q11284512",
      "brand:wikipedia": "ja:Apaman Network",
      "name": "アパマンショップ",
      "name:en": "Apaman Shop",
      "name:ja": "アパマンショップ",
      "office": "estate_agent"
    }
  },
  "office/estate_agent|エイブル": {
    "locationSet": {"include": ["jp"]},
    "tags": {
      "brand": "エイブル",
      "brand:en": "Able",
      "brand:ja": "エイブル",
      "brand:wikidata": "Q11289620",
      "brand:wikipedia": "ja:エイブル",
      "name": "エイブル",
      "name:en": "Able",
      "name:ja": "エイブル",
      "office": "estate_agent"
    }
  },
  "office/estate_agent|タウンハウジング": {
    "locationSet": {"include": ["jp"]},
    "tags": {
      "brand": "タウンハウジング",
      "brand:en": "Townhousing",
      "brand:ja": "タウンハウジング",
      "brand:wikidata": "Q11315877",
      "brand:wikipedia": "ja:タウンハウジング",
      "name": "タウンハウジング",
      "name:en": "Townhousing",
      "name:ja": "タウンハウジング",
      "office": "estate_agent"
    }
  },
  "office/estate_agent|ピタットハウス": {
    "locationSet": {"include": ["jp"]},
    "matchNames": ["ピタットハウスネットワーク"],
    "tags": {
      "brand": "ピタットハウス",
      "brand:en": "Pitat House",
      "brand:ja": "ピタットハウス",
      "brand:wikidata": "Q11331484",
      "brand:wikipedia": "ja:ピタットハウスネットワーク",
      "name": "ピタットハウス",
      "name:en": "Pitat House",
      "name:ja": "ピタットハウス",
      "office": "estate_agent"
    }
  },
  "office/estate_agent|ユニバーサルホーム": {
    "locationSet": {"include": ["jp"]},
    "tags": {
      "brand": "ユニバーサルホーム",
      "brand:en": "Universal House",
      "brand:ja": "ユニバーサルホーム",
      "brand:wikidata": "Q11345697",
      "brand:wikipedia": "ja:ユニバーサルホーム",
      "name": "ユニバーサルホーム",
      "name:en": "Universal House",
      "name:ja": "ユニバーサルホーム",
      "office": "estate_agent"
    }
  },
  "office/estate_agent|三菱UFJ不動産販売": {
    "locationSet": {"include": ["jp"]},
    "tags": {
      "brand": "三菱UFJ不動産販売",
      "brand:en": "Mitsubishi UFJ Real Estate Services",
      "brand:ja": "三菱UFJ不動産販売",
      "brand:wikidata": "Q11357004",
      "brand:wikipedia": "ja:三菱UFJ不動産販売",
      "name": "三菱UFJ不動産販売",
      "name:en": "Mitsubishi UFJ Real Estate Services",
      "name:ja": "三菱UFJ不動産販売",
      "office": "estate_agent"
    }
  },
  "office/estate_agent|信義房屋": {
    "locationSet": {"include": ["tw"]},
    "tags": {
      "brand": "信義房屋",
      "brand:en": "Sinyi Realty",
      "brand:wikidata": "Q10888034",
      "brand:wikipedia": "zh:信義房屋",
      "brand:zh": "信義房屋",
      "name": "信義房屋",
      "name:en": "Sinyi Realty",
      "name:zh": "信義房屋",
      "office": "estate_agent"
    }
  },
  "office/estate_agent|我爱我家": {
    "locationSet": {"include": ["cn"]},
    "tags": {
      "brand": "我爱我家",
      "brand:wikidata": "Q21017079",
      "brand:wikipedia": "zh:我爱我家 (房产公司)",
      "name": "我爱我家",
      "office": "estate_agent"
    }
  },
  "office/estate_agent|永慶房屋": {
    "locationSet": {"include": ["tw"]},
    "tags": {
      "brand": "永慶房屋",
      "brand:en": "Yung Ching",
      "brand:wikidata": "Q11132113",
      "brand:wikipedia": "zh:永慶房屋",
      "brand:zh": "永慶房屋",
      "name": "永慶房屋",
      "name:en": "Yung Ching",
      "name:zh": "永慶房屋",
      "office": "estate_agent"
    }
  },
  "office/estate_agent|链家": {
    "locationSet": {"include": ["cn"]},
    "tags": {
      "brand": "链家",
      "brand:en": "Lianjia",
      "brand:wikidata": "Q24836804",
      "brand:wikipedia": "en:Lianjia",
      "brand:zh": "链家",
      "name": "链家",
      "name:en": "Lianjia",
      "name:zh": "链家",
      "office": "estate_agent"
    }
  }
}