{
  "shop/alcohol|Alko": {
    "locationSet": {"include": ["fi"]},
    "tags": {
      "brand": "Alko",
      "brand:wikidata": "Q1849187",
      "brand:wikipedia": "en:Alko",
      "name": "Alko",
      "shop": "alcohol"
    }
  },
  "shop/alcohol|BC Liquor Store": {
    "locationSet": {"include": ["ca"]},
    "tags": {
      "brand": "BC Liquor Store",
      "brand:wikidata": "Q43079557",
      "brand:wikipedia": "en:BC Liquor Stores",
      "name": "BC Liquor Store",
      "shop": "alcohol"
    }
  },
  "shop/alcohol|BWS": {
    "locationSet": {"include": ["au"]},
    "tags": {
      "brand": "BWS",
      "brand:wikidata": "Q4836848",
      "brand:wikipedia": "en:BWS (liquor retailer)",
      "name": "BWS",
      "shop": "alcohol"
    }
  },
  "shop/alcohol|Bargain Booze": {
    "locationSet": {"include": ["gb"]},
    "tags": {
      "brand": "Bargain Booze",
      "brand:wikidata": "Q16971315",
      "brand:wikipedia": "en:Bargain Booze",
      "name": "Bargain Booze",
      "shop": "alcohol"
    }
  },
  "shop/alcohol|BevMo!": {
    "locationSet": {"include": ["us"]},
    "tags": {
      "brand": "BevMo!",
      "brand:wikidata": "Q4899308",
      "brand:wikipedia": "en:BevMo!",
      "name": "BevMo!",
      "shop": "alcohol"
    }
  },
  "shop/alcohol|Cellarbrations": {
    "locationSet": {"include": ["au"]},
    "tags": {
      "brand": "Cellarbrations",
      "name": "Cellarbrations",
      "shop": "alcohol"
    }
  },
  "shop/alcohol|Dan Murphy's": {
    "locationSet": {"include": ["au"]},
    "tags": {
      "brand": "Dan Murphy's",
      "brand:wikidata": "Q5214075",
      "brand:wikipedia": "en:Dan Murphy's",
      "name": "Dan Murphy's",
      "shop": "alcohol"
    }
  },
  "shop/alcohol|Fine Wine & Good Spirits": {
    "locationSet": {"include": ["us"]},
    "tags": {
      "brand": "Fine Wine & Good Spirits",
      "brand:wikidata": "Q64514776",
      "name": "Fine Wine & Good Spirits",
      "shop": "alcohol"
    }
  },
  "shop/alcohol|Gall & Gall": {
    "locationSet": {"include": ["nl"]},
    "tags": {
      "brand": "Gall & Gall",
      "brand:wikidata": "Q13639185",
      "brand:wikipedia": "nl:Gall & Gall",
      "name": "Gall & Gall",
      "shop": "alcohol"
    }
  },
  "shop/alcohol|LCBO": {
    "locationSet": {"include": ["ca"]},
    "tags": {
      "brand": "LCBO",
      "brand:wikidata": "Q845263",
      "brand:wikipedia": "en:Liquor Control Board of Ontario",
      "name": "LCBO",
      "shop": "alcohol"
    }
  },
  "shop/alcohol|Liquor Depot": {
    "locationSet": {"include": ["ca"]},
    "tags": {
      "brand": "Liquor Depot",
      "name": "Liquor Depot",
      "shop": "alcohol"
    }
  },
  "shop/alcohol|Liquorland": {
    "locationSet": {"include": ["au"]},
    "tags": {
      "brand": "Liquorland",
      "brand:wikidata": "Q2283837",
      "brand:wikipedia": "en:Liquorland",
      "name": "Liquorland",
      "shop": "alcohol"
    }
  },
  "shop/alcohol|Majestic": {
    "locationSet": {"include": ["gb"]},
    "matchNames": [
      "majestic wine",
      "majestic wine warehouse"
    ],
    "tags": {
      "brand": "Majestic",
      "brand:wikidata": "Q6737725",
      "brand:wikipedia": "en:Majestic Wine",
      "name": "Majestic",
      "shop": "alcohol"
    }
  },
  "shop/alcohol|Mitra": {
    "locationSet": {"include": ["nl"]},
    "tags": {
      "brand": "Mitra",
      "name": "Mitra",
      "shop": "alcohol"
    }
  },
  "shop/alcohol|NSLC": {
    "locationSet": {"include": ["001"]},
    "tags": {
      "brand": "NSLC",
      "name": "NSLC",
      "shop": "alcohol"
    }
  },
  "shop/alcohol|Nicolas": {
    "locationSet": {
      "include": ["be", "fr", "gb"]
    },
    "tags": {
      "brand": "Nicolas",
      "brand:wikidata": "Q3340012",
      "brand:wikipedia": "en:Nicolas (wine retailer)",
      "name": "Nicolas",
      "shop": "alcohol"
    }
  },
  "shop/alcohol|Oddbins": {
    "locationSet": {"include": ["gb"]},
    "tags": {
      "brand": "Oddbins",
      "brand:wikidata": "Q7077472",
      "brand:wikipedia": "en:Oddbins",
      "name": "Oddbins",
      "shop": "alcohol"
    }
  },
  "shop/alcohol|SAQ": {
    "locationSet": {"include": ["ca"]},
    "nomatch": [
      "shop/alcohol|SAQ Express",
      "shop/alcohol|SAQ Sélection"
    ],
    "tags": {
      "brand": "SAQ",
      "brand:wikidata": "Q3488077",
      "brand:wikipedia": "en:Société des alcools du Québec",
      "name": "SAQ",
      "shop": "alcohol"
    }
  },
  "shop/alcohol|SAQ Express": {
    "locationSet": {"include": ["ca"]},
    "nomatch": [
      "shop/alcohol|SAQ",
      "shop/alcohol|SAQ Sélection"
    ],
    "tags": {
      "brand": "SAQ Express",
      "brand:wikidata": "Q3488077",
      "brand:wikipedia": "en:Société des alcools du Québec",
      "name": "SAQ Express",
      "shop": "alcohol"
    }
  },
  "shop/alcohol|SAQ Sélection": {
    "locationSet": {"include": ["ca"]},
    "nomatch": [
      "shop/alcohol|SAQ",
      "shop/alcohol|SAQ Express"
    ],
    "tags": {
      "brand": "SAQ Sélection",
      "brand:wikidata": "Q3488077",
      "brand:wikipedia": "en:Société des alcools du Québec",
      "name": "SAQ Sélection",
      "shop": "alcohol"
    }
  },
  "shop/alcohol|Spec's": {
    "locationSet": {"include": ["us"]},
    "tags": {
      "brand": "Spec's",
      "brand:wikidata": "Q7574415",
      "brand:wikipedia": "en:Spec's Wine, Spirits & Finer Foods",
      "name": "Spec's",
      "shop": "alcohol"
    }
  },
  "shop/alcohol|Super Liquor": {
    "locationSet": {"include": ["nz"]},
    "tags": {
      "brand": "Super Liquor",
      "name": "Super Liquor",
      "shop": "alcohol"
    }
  },
  "shop/alcohol|Systembolaget": {
    "locationSet": {"include": ["se"]},
    "tags": {
      "brand": "Systembolaget",
      "brand:wikidata": "Q1476113",
      "brand:wikipedia": "en:Systembolaget",
      "name": "Systembolaget",
      "shop": "alcohol"
    }
  },
  "shop/alcohol|The Beer Store": {
    "locationSet": {"include": ["ca"]},
    "tags": {
      "brand": "The Beer Store",
      "brand:wikidata": "Q16243674",
      "brand:wikipedia": "en:The Beer Store",
      "name": "The Beer Store",
      "shop": "alcohol"
    }
  },
  "shop/alcohol|Thirsty Camel": {
    "locationSet": {"include": ["au"]},
    "tags": {
      "brand": "Thirsty Camel",
      "name": "Thirsty Camel",
      "shop": "alcohol"
    }
  },
  "shop/alcohol|Tops": {
    "locationSet": {"include": ["001"]},
    "tags": {
      "brand": "Tops",
      "name": "Tops",
      "shop": "alcohol"
    }
  },
  "shop/alcohol|Total Wine": {
    "locationSet": {"include": ["us"]},
    "tags": {
      "brand": "Total Wine",
      "brand:wikidata": "Q7828084",
      "brand:wikipedia": "en:Total Wine & More",
      "name": "Total Wine",
      "official_name": "Total Wine & More",
      "shop": "alcohol"
    }
  },
  "shop/alcohol|Virginia ABC": {
    "locationSet": {"include": ["us"]},
    "tags": {
      "brand": "Virginia ABC",
      "brand:wikidata": "Q7934236",
      "brand:wikipedia": "en:Virginia Alcoholic Beverage Control Authority",
      "name": "Virginia ABC",
      "shop": "alcohol"
    }
  },
  "shop/alcohol|Алкомаркет": {
    "locationSet": {"include": ["kz"]},
    "tags": {
      "brand": "Алкомаркет",
      "name": "Алкомаркет",
      "shop": "alcohol"
    }
  },
  "shop/alcohol|Ароматный мир": {
    "locationSet": {"include": ["ru"]},
    "tags": {
      "brand": "Ароматный мир",
      "name": "Ароматный мир",
      "shop": "alcohol"
    }
  },
  "shop/alcohol|Бристоль": {
    "locationSet": {"include": ["ru"]},
    "matchTags": ["shop/convenience"],
    "tags": {
      "brand": "Бристоль",
      "brand:wikidata": "Q59155583",
      "brand:wikipedia": "ru:Бристоль (сеть магазинов)",
      "name": "Бристоль",
      "shop": "alcohol"
    }
  },
  "shop/alcohol|Винлаб": {
    "locationSet": {"include": ["ru"]},
    "tags": {
      "brand": "Винлаб",
      "name": "Винлаб",
      "shop": "alcohol"
    }
  },
  "shop/alcohol|Горилка": {
    "locationSet": {"include": ["kz", "ru"]},
    "tags": {
      "brand": "Горилка",
      "name": "Горилка",
      "shop": "alcohol"
    }
  },
  "shop/alcohol|Градус": {
    "locationSet": {"include": ["ru"]},
    "tags": {
      "brand": "Градус",
      "name": "Градус",
      "shop": "alcohol"
    }
  },
  "shop/alcohol|Градусы": {
    "locationSet": {"include": ["ru"]},
    "tags": {
      "brand": "Градусы",
      "name": "Градусы",
      "shop": "alcohol"
    }
  },
  "shop/alcohol|Красное & Белое": {
    "locationSet": {"include": ["ru"]},
    "matchNames": ["красное и белое"],
    "tags": {
      "brand": "Красное & Белое",
      "brand:en": "Red&White",
      "brand:wikidata": "Q24933790",
      "brand:wikipedia": "en:Krasnoe & Beloe",
      "name": "Красное & Белое",
      "name:en": "Red&White",
      "shop": "alcohol"
    }
  },
  "shop/alcohol|Кристалл": {
    "locationSet": {"include": ["by", "ru"]},
    "matchTags": ["shop/convenience"],
    "tags": {
      "brand": "Кристалл",
      "name": "Кристалл",
      "shop": "alcohol"
    }
  },
  "shop/alcohol|Лион": {
    "locationSet": {"include": ["ru"]},
    "tags": {
      "brand": "Лион",
      "name": "Лион",
      "shop": "alcohol"
    }
  },
  "shop/alcohol|Норман": {
    "locationSet": {"include": ["ru"]},
    "tags": {
      "brand": "Норман",
      "name": "Норман",
      "shop": "alcohol"
    }
  },
  "shop/alcohol|Отдохни": {
    "locationSet": {"include": ["ru"]},
    "tags": {
      "brand": "Отдохни",
      "name": "Отдохни",
      "shop": "alcohol"
    }
  },
  "shop/alcohol|Чарка до свята": {
    "locationSet": {"include": ["001"]},
    "tags": {
      "brand": "Чарка до свята",
      "name": "Чарка до свята",
      "shop": "alcohol"
    }
  },
  "shop/alcohol|やまや": {
    "locationSet": {"include": ["jp"]},
    "tags": {
      "brand": "やまや",
      "brand:en": "Yamaya",
      "brand:ja": "やまや",
      "brand:wikidata": "Q17224765",
      "brand:wikipedia": "ja:やまや",
      "name": "やまや",
      "name:en": "YaMaYa",
      "name:ja": "やまや",
      "shop": "alcohol"
    }
  },
  "shop/alcohol|カクヤス": {
    "locationSet": {"include": ["jp"]},
    "tags": {
      "brand": "カクヤス",
      "brand:en": "Kakuyasu",
      "brand:ja": "カクヤス",
      "brand:wikidata": "Q11293990",
      "brand:wikipedia": "ja:カクヤス",
      "name": "カクヤス",
      "name:en": "Kakuyasu",
      "name:ja": "カクヤス",
      "shop": "alcohol"
    }
  },
  "shop/alcohol|リカーマウンテン": {
    "locationSet": {"include": ["jp"]},
    "tags": {
      "brand": "リカーマウンテン",
      "brand:en": "Liquor Mountain",
      "brand:ja": "リカーマウンテン",
      "brand:wikidata": "Q11347883",
      "brand:wikipedia": "ja:リカーマウンテン",
      "name": "リカーマウンテン",
      "name:en": "Liquor Mountain",
      "name:ja": "リカーマウンテン",
      "shop": "alcohol"
    }
  }
}