{
  "shop/books|Akademibokhandeln": {
    "locationSet": {"include": ["se"]},
    "tags": {
      "brand": "Akademibokhandeln",
      "brand:wikidata": "Q10403918",
      "brand:wikipedia": "sv:Akademibokhandeln",
      "name": "Akademibokhandeln",
      "shop": "books"
    }
  },
  "shop/books|Akateeminen Kirjakauppa": {
    "locationSet": {"include": ["fi"]},
    "tags": {
      "brand": "Akateeminen Kirjakauppa",
      "brand:wikidata": "Q10403942",
      "brand:wikipedia": "fi:Akateeminen Kirjakauppa",
      "name": "Akateeminen Kirjakauppa",
      "shop": "books"
    }
  },
  "shop/books|Barnes & Noble": {
    "locationSet": {"include": ["us"]},
    "tags": {
      "brand": "Barnes & Noble",
      "brand:wikidata": "Q795454",
      "brand:wikipedia": "en:Barnes & Noble",
      "name": "Barnes & Noble",
      "shop": "books"
    }
  },
  "shop/books|Bertrand": {
    "locationSet": {"include": ["pt"]},
    "tags": {
      "brand": "Bertrand",
      "brand:wikidata": "Q1866547",
      "brand:wikipedia": "en:Livraria Bertrand",
      "name": "Bertrand",
      "shop": "books"
    }
  },
  "shop/books|Books-A-Million": {
    "locationSet": {"include": ["us"]},
    "tags": {
      "brand": "Books-A-Million",
      "brand:wikidata": "Q4943266",
      "brand:wikipedia": "en:Books-A-Million",
      "name": "Books-A-Million",
      "shop": "books"
    }
  },
  "shop/books|Bruna": {
    "locationSet": {"include": ["nl"]},
    "tags": {
      "brand": "Bruna",
      "brand:wikidata": "Q3317555",
      "brand:wikipedia": "en:Bruna (company)",
      "name": "Bruna",
      "shop": "books"
    }
  },
  "shop/books|Chapters": {
    "locationSet": {"include": ["ca", "us"]},
    "tags": {
      "brand": "Chapters",
      "brand:wikidata": "Q5073540",
      "brand:wikipedia": "en:Chapters (bookstore)",
      "name": "Chapters",
      "shop": "books"
    }
  },
  "shop/books|Christian Science Reading Room": {
    "locationSet": {"include": ["us"]},
    "tags": {
      "books": "religion",
      "brand": "Christian Science Reading Room",
      "brand:wikidata": "Q5110122",
      "brand:wikipedia": "en:Christian Science Reading Room",
      "name": "Christian Science Reading Room",
      "shop": "books"
    }
  },
  "shop/books|Coles": {
    "locationSet": {"include": ["ca"]},
    "nomatch": [
      "amenity/fuel|Coles Express",
      "shop/convenience|Coles Express",
      "shop/supermarket|Coles"
    ],
    "tags": {
      "brand": "Coles",
      "brand:wikidata": "Q5144641",
      "brand:wikipedia": "en:Coles (bookstore)",
      "name": "Coles",
      "shop": "books"
    }
  },
  "shop/books|Cultura": {
    "locationSet": {"include": ["fr"]},
    "tags": {
      "brand": "Cultura",
      "brand:wikidata": "Q3007154",
      "brand:wikipedia": "fr:Cultura",
      "name": "Cultura",
      "shop": "books"
    }
  },
  "shop/books|Empik": {
    "locationSet": {"include": ["pl"]},
    "tags": {
      "brand": "Empik",
      "brand:wikidata": "Q3045978",
      "brand:wikipedia": "pl:Empik",
      "name": "Empik",
      "shop": "books"
    }
  },
  "shop/books|Fnac": {
    "locationSet": {
      "include": [
        "be",
        "ch",
        "es",
        "fr",
        "nl",
        "pt"
      ]
    },
    "tags": {
      "brand": "Fnac",
      "brand:wikidata": "Q676585",
      "brand:wikipedia": "en:Fnac",
      "name": "Fnac",
      "shop": "books"
    }
  },
  "shop/books|France Loisirs": {
    "locationSet": {"include": ["001"]},
    "tags": {
      "brand": "France Loisirs",
      "brand:wikidata": "Q3080726",
      "brand:wikipedia": "fr:France Loisirs",
      "name": "France Loisirs",
      "shop": "books"
    }
  },
  "shop/books|Gramedia": {
    "locationSet": {"include": ["id"]},
    "tags": {
      "brand": "Gramedia",
      "brand:wikidata": "Q19646130",
      "brand:wikipedia": "id:Gramedia (toko buku)",
      "name": "Gramedia",
      "shop": "books"
    }
  },
  "shop/books|Half Price Books": {
    "locationSet": {"include": ["us"]},
    "tags": {
      "brand": "Half Price Books",
      "brand:wikidata": "Q5641744",
      "brand:wikipedia": "en:Half Price Books",
      "name": "Half Price Books",
      "shop": "books"
    }
  },
  "shop/books|Hugendubel": {
    "locationSet": {"include": ["de"]},
    "tags": {
      "brand": "Hugendubel",
      "brand:wikidata": "Q1634142",
      "brand:wikipedia": "en:Hugendubel",
      "name": "Hugendubel",
      "shop": "books"
    }
  },
  "shop/books|Indigo": {
    "locationSet": {"include": ["ca", "us"]},
    "nomatch": ["amenity/parking|Indigo"],
    "tags": {
      "alt_name": "!ndigo",
      "brand": "Indigo",
      "brand:wikidata": "Q2477358",
      "brand:wikipedia": "en:Indigo Books and Music",
      "name": "Indigo",
      "shop": "books"
    }
  },
  "shop/books|Libro": {
    "locationSet": {"include": ["at"]},
    "tags": {
      "brand": "Libro",
      "brand:wikidata": "Q1823138",
      "brand:wikipedia": "de:Libro",
      "name": "Libro",
      "shop": "books"
    }
  },
  "shop/books|Martinus": {
    "locationSet": {"include": ["sk"]},
    "tags": {
      "brand": "Martinus",
      "brand:wikidata": "Q15089074",
      "brand:wikipedia": "sk:Martinus",
      "name": "Martinus",
      "shop": "books"
    }
  },
  "shop/books|Mondadori": {
    "locationSet": {"include": ["it"]},
    "tags": {
      "brand": "Mondadori",
      "brand:wikidata": "Q85355",
      "brand:wikipedia": "en:Arnoldo Mondadori Editore",
      "name": "Mondadori",
      "shop": "books"
    }
  },
  "shop/books|National Book Store": {
    "locationSet": {"include": ["ph"]},
    "tags": {
      "brand": "National Book Store",
      "brand:wikidata": "Q6971094",
      "brand:wikipedia": "en:National Book Store",
      "name": "National Book Store",
      "shop": "books"
    }
  },
  "shop/books|Orell Füssli": {
    "locationSet": {"include": ["ch"]},
    "tags": {
      "brand": "Orell Füssli",
      "brand:wikidata": "Q1511140",
      "brand:wikipedia": "de:Orell Füssli",
      "name": "Orell Füssli",
      "shop": "books"
    }
  },
  "shop/books|Osiander": {
    "locationSet": {"include": ["de"]},
    "tags": {
      "brand": "Osiander",
      "brand:wikidata": "Q1800686",
      "brand:wikipedia": "de:Osiandersche Buchhandlung",
      "name": "Osiander",
      "shop": "books"
    }
  },
  "shop/books|Oxfam Bookshop": {
    "locationSet": {"include": ["gb"]},
    "tags": {
      "brand": "Oxfam Bookshop",
      "brand:wikidata": "Q7115196",
      "brand:wikipedia": "en:Oxfam bookshops",
      "name": "Oxfam Bookshop",
      "second_hand": "only",
      "shop": "books"
    }
  },
  "shop/books|Panta Rhei": {
    "locationSet": {"include": ["sk"]},
    "tags": {
      "brand": "Panta Rhei",
      "brand:wikidata": "Q93431299",
      "name": "Panta Rhei",
      "shop": "books"
    }
  },
  "shop/books|Popular": {
    "locationSet": {
      "include": ["hk", "my", "sg"]
    },
    "matchTags": ["shop/stationery"],
    "nomatch": ["amenity/bank|Popular"],
    "tags": {
      "brand": "Popular",
      "brand:wikidata": "Q4167785",
      "brand:wikipedia": "en:Popular Holdings",
      "brand:zh": "大众书局",
      "name": "Popular",
      "name:zh": "大众书局",
      "shop": "books"
    }
  },
  "shop/books|Saraiva": {
    "locationSet": {"include": ["br"]},
    "tags": {
      "alt_name": "Livraria Saraiva",
      "brand": "Saraiva",
      "brand:wikidata": "Q10319337",
      "brand:wikipedia": "pt:Livraria Saraiva",
      "name": "Saraiva",
      "shop": "books"
    }
  },
  "shop/books|Seagull Book": {
    "locationSet": {"include": ["us"]},
    "tags": {
      "brand": "Seagull Book",
      "brand:wikidata": "Q7440458",
      "brand:wikipedia": "en:Seagull Book",
      "name": "Seagull Book",
      "shop": "books"
    }
  },
  "shop/books|Standaard Boekhandel": {
    "locationSet": {"include": ["be"]},
    "tags": {
      "brand": "Standaard Boekhandel",
      "brand:wikidata": "Q3496554",
      "brand:wikipedia": "nl:Standaard Boekhandel",
      "name": "Standaard Boekhandel",
      "shop": "books"
    }
  },
  "shop/books|Suomalainen Kirjakauppa": {
    "locationSet": {"include": ["fi"]},
    "tags": {
      "brand": "Suomalainen Kirjakauppa",
      "brand:wikidata": "Q7641808",
      "brand:wikipedia": "fi:Suomalainen Kirjakauppa",
      "name": "Suomalainen Kirjakauppa",
      "shop": "books"
    }
  },
  "shop/books|TSUTAYA": {
    "locationSet": {"include": ["jp"]},
    "nomatch": [
      "shop/music|TSUTAYA",
      "shop/video|TSUTAYA"
    ],
    "tags": {
      "brand": "TSUTAYA",
      "brand:wikidata": "Q5193457",
      "brand:wikipedia": "ja:カルチュア・コンビニエンス・クラブ",
      "name": "TSUTAYA",
      "shop": "books"
    }
  },
  "shop/books|Thalia": {
    "locationSet": {"include": ["at", "de"]},
    "tags": {
      "brand": "Thalia",
      "brand:wikidata": "Q2408854",
      "brand:wikipedia": "de:Thalia Bücher",
      "name": "Thalia",
      "shop": "books"
    }
  },
  "shop/books|The Works": {
    "locationSet": {"include": ["gb", "ie"]},
    "tags": {
      "brand": "The Works",
      "brand:wikidata": "Q7775853",
      "brand:wikipedia": "en:The Works (retailer)",
      "name": "The Works",
      "shop": "books"
    }
  },
  "shop/books|WHSmith": {
    "locationSet": {"include": ["001"]},
    "nomatch": ["shop/newsagent|WHSmith"],
    "tags": {
      "brand": "WHSmith",
      "brand:wikidata": "Q1548712",
      "brand:wikipedia": "en:WHSmith",
      "name": "WHSmith",
      "shop": "books"
    }
  },
  "shop/books|Waterstones": {
    "locationSet": {
      "include": ["be", "gb", "ie", "je", "nl"]
    },
    "tags": {
      "brand": "Waterstones",
      "brand:wikidata": "Q151779",
      "brand:wikipedia": "en:Waterstones",
      "name": "Waterstones",
      "shop": "books"
    }
  },
  "shop/books|Weltbild": {
    "locationSet": {"include": ["de"]},
    "tags": {
      "brand": "Weltbild",
      "brand:wikidata": "Q883522",
      "brand:wikipedia": "en:Weltbild Publishing Group",
      "name": "Weltbild",
      "shop": "books"
    }
  },
  "shop/books|Буквоед": {
    "locationSet": {"include": ["ru"]},
    "tags": {
      "brand": "Буквоед",
      "brand:wikidata": "Q4098549",
      "brand:wikipedia": "ru:Буквоед",
      "name": "Буквоед",
      "shop": "books"
    }
  },
  "shop/books|Дом книги": {
    "locationSet": {"include": ["ru"]},
    "tags": {
      "brand": "Дом книги",
      "brand:wikidata": "Q48950742",
      "brand:wikipedia": "ru:Московский дом книги",
      "name": "Дом книги",
      "shop": "books"
    }
  },
  "shop/books|Читай-город": {
    "locationSet": {"include": ["ru"]},
    "tags": {
      "brand": "Читай-город",
      "brand:wikidata": "Q4516645",
      "brand:wikipedia": "ru:Читай-город",
      "name": "Читай-город",
      "shop": "books"
    }
  },
  "shop/books|סטימצקי": {
    "locationSet": {"include": ["il"]},
    "tags": {
      "brand": "סטימצקי",
      "brand:en": "Steimatzky",
      "brand:he": "סטימצקי",
      "brand:wikidata": "Q2903995",
      "brand:wikipedia": "he:סטימצקי",
      "name": "סטימצקי",
      "name:en": "Steimatzky",
      "name:he": "סטימצקי",
      "shop": "books"
    }
  },
  "shop/books|צומת ספרים": {
    "locationSet": {"include": ["il"]},
    "matchNames": ["zomet sfarim"],
    "tags": {
      "brand": "צומת ספרים",
      "brand:en": "Tzomet Sfarim",
      "brand:he": "צומת ספרים",
      "brand:wikidata": "Q6743833",
      "brand:wikipedia": "he:צומת ספרים",
      "name": "צומת ספרים",
      "name:en": "Tzomet Sfarm",
      "name:he": "צומת ספרים",
      "shop": "books"
    }
  },
  "shop/books|あおい書店": {
    "locationSet": {"include": ["jp"]},
    "tags": {
      "brand": "あおい書店",
      "brand:en": "AOI",
      "brand:ja": "あおい書店",
      "brand:wikidata": "Q11256783",
      "brand:wikipedia": "ja:あおい書店",
      "name": "あおい書店",
      "name:en": "AOI",
      "name:ja": "あおい書店",
      "shop": "books"
    }
  },
  "shop/books|くまざわ書店": {
    "locationSet": {"include": ["jp"]},
    "tags": {
      "alt_name:en": "Kumabook",
      "brand": "くまざわ書店",
      "brand:en": "Kumazawa Books",
      "brand:ja": "くまざわ書店",
      "brand:wikidata": "Q11265517",
      "brand:wikipedia": "ja:くまざわ",
      "name": "くまざわ書店",
      "name:en": "Kumazawa Books",
      "name:ja": "くまざわ書店",
      "shop": "books"
    }
  },
  "shop/books|とらのあな": {
    "locationSet": {"include": ["jp"]},
    "tags": {
      "books": "comic",
      "brand": "とらのあな",
      "brand:en": "Toranoana",
      "brand:ja": "とらのあな",
      "brand:wikidata": "Q865297",
      "brand:wikipedia": "ja:コミックとらのあな",
      "name": "とらのあな",
      "name:en": "Comic Toranoana",
      "name:ja": "とらのあな",
      "shop": "books"
    }
  },
  "shop/books|オリオン書房": {
    "locationSet": {"include": ["jp"]},
    "tags": {
      "brand": "オリオン書房",
      "brand:en": "Orion Books",
      "brand:ja": "オリオン書房",
      "brand:wikidata": "Q11292597",
      "brand:wikipedia": "ja:オリオン書房",
      "name": "オリオン書房",
      "name:en": "Orion Books",
      "name:ja": "オリオン書房",
      "shop": "books"
    }
  },
  "shop/books|ジュンク堂書店": {
    "locationSet": {"include": ["jp"]},
    "matchNames": ["ジュンク"],
    "tags": {
      "brand": "ジュンク堂書店",
      "brand:en": "Junkudo",
      "brand:ja": "ジュンク堂書店",
      "brand:wikidata": "Q3190093",
      "brand:wikipedia": "ja:ジュンク堂書店",
      "name": "ジュンク堂書店",
      "name:en": "Junkudo",
      "name:ja": "ジュンク堂書店",
      "shop": "books"
    }
  },
  "shop/books|ブックオフ": {
    "locationSet": {"include": ["jp"]},
    "tags": {
      "brand": "ブックオフ",
      "brand:en": "Book Off",
      "brand:ja": "ブックオフ",
      "brand:wikidata": "Q893011",
      "brand:wikipedia": "en:Book Off",
      "name": "ブックオフ",
      "name:en": "Book Off",
      "name:ja": "ブックオフ",
      "shop": "books"
    }
  },
  "shop/books|ブックファースト": {
    "locationSet": {"include": ["jp"]},
    "matchNames": ["ブック最初"],
    "tags": {
      "brand": "ブックファースト",
      "brand:en": "Book1st",
      "brand:ja": "ブックファースト",
      "brand:wikidata": "Q11334365",
      "brand:wikipedia": "ja:ブックファースト",
      "name": "ブックファースト",
      "name:en": "Book1st",
      "name:ja": "ブックファースト",
      "shop": "books"
    }
  },
  "shop/books|メロンブックス": {
    "locationSet": {"include": ["jp"]},
    "tags": {
      "brand": "メロンブックス",
      "brand:en": "Melonbooks",
      "brand:ja": "メロンブックス",
      "brand:wikidata": "Q10851653",
      "brand:wikipedia": "ja:メロンブックス",
      "name": "メロンブックス",
      "name:en": "Melonbooks",
      "name:ja": "メロンブックス",
      "shop": "books"
    }
  },
  "shop/books|リブロ": {
    "locationSet": {"include": ["jp"]},
    "tags": {
      "brand": "リブロ",
      "brand:en": "LIBRO",
      "brand:ja": "リブロ",
      "brand:wikidata": "Q6542768",
      "brand:wikipedia": "ja:リブロ",
      "name": "リブロ",
      "name:en": "Libro",
      "name:ja": "リブロ",
      "shop": "books"
    }
  },
  "shop/books|三省堂書店": {
    "locationSet": {"include": ["jp"]},
    "tags": {
      "brand": "三省堂書店",
      "brand:en": "Books Sanseido",
      "brand:ja": "三省堂書店",
      "brand:wikidata": "Q10866539",
      "brand:wikipedia": "ja:三省堂書店",
      "name": "三省堂書店",
      "name:en": "Books Sanseido",
      "name:ja": "三省堂書店",
      "shop": "books"
    }
  },
  "shop/books|丸善": {
    "locationSet": {"include": ["jp"]},
    "matchNames": ["丸善書店"],
    "tags": {
      "brand": "丸善",
      "brand:en": "MARUZEN",
      "brand:ja": "丸善",
      "brand:wikidata": "Q1906012",
      "brand:wikipedia": "ja:丸善雄松堂",
      "name": "丸善",
      "name:en": "MARUZEN",
      "name:ja": "丸善",
      "official_name": "丸善雄松堂",
      "official_name:en": "Maruzen Yushodo",
      "official_name:ja": "丸善雄松堂",
      "shop": "books"
    }
  },
  "shop/books|宮脇書店": {
    "locationSet": {"include": ["001"]},
    "tags": {
      "brand": "宮脇書店",
      "brand:en": "Miyawaki Shoten",
      "brand:ja": "宮脇書店",
      "brand:wikidata": "Q11455237",
      "brand:wikipedia": "ja:宮脇書店",
      "name": "宮脇書店",
      "name:en": "Miyawaki Shoten",
      "name:ja": "宮脇書店",
      "shop": "books"
    }
  },
  "shop/books|文教堂": {
    "locationSet": {"include": ["jp"]},
    "matchNames": ["文教堂書店"],
    "tags": {
      "brand": "文教堂",
      "brand:en": "Bunkyodo",
      "brand:ja": "文教堂",
      "brand:wikidata": "Q11499974",
      "brand:wikipedia": "ja:文教堂",
      "name": "文教堂",
      "name:en": "Bunkyodo",
      "name:ja": "文教堂",
      "shop": "books"
    }
  },
  "shop/books|新华书店": {
    "locationSet": {"include": ["cn"]},
    "tags": {
      "brand": "新华书店",
      "brand:en": "Xinhua Bookstore",
      "brand:wikidata": "Q6124193",
      "brand:wikipedia": "en:Xinhua Bookstore",
      "brand:zh": "新华书店",
      "name": "新华书店",
      "name:en": "Xinhua Bookstore",
      "name:zh": "新华书店",
      "shop": "books"
    }
  },
  "shop/books|有隣堂": {
    "locationSet": {"include": ["jp"]},
    "tags": {
      "brand": "有隣堂",
      "brand:en": "Yurindo",
      "brand:ja": "有隣堂",
      "brand:wikidata": "Q8061680",
      "brand:wikipedia": "ja:有隣堂",
      "name": "有隣堂",
      "name:en": "Yurindo",
      "name:ja": "有隣堂",
      "shop": "books"
    }
  },
  "shop/books|未来屋書店": {
    "locationSet": {"include": ["jp"]},
    "tags": {
      "brand": "未来屋書店",
      "brand:en": "Miraiya Shoten",
      "brand:ja": "未来屋書店",
      "brand:wikidata": "Q11519563",
      "brand:wikipedia": "ja:未来屋書店",
      "name": "未来屋書店",
      "name:en": "Miraiya Shoten",
      "name:ja": "未来屋書店",
      "shop": "books"
    }
  },
  "shop/books|紀伊國屋書店": {
    "locationSet": {"include": ["jp"]},
    "tags": {
      "brand": "紀伊國屋書店",
      "brand:en": "Books Kinokuniya",
      "brand:ja": "紀伊國屋書店",
      "brand:wikidata": "Q8061680",
      "brand:wikipedia": "ja:紀伊國屋書店",
      "name": "紀伊國屋書店",
      "name:en": "Books Kinokuniya",
      "name:ja": "紀伊國屋書店",
      "shop": "books"
    }
  },
  "shop/books|西西弗书店": {
    "locationSet": {"include": ["cn"]},
    "tags": {
      "brand": "西西弗书店",
      "brand:en": "Sisyphe Bookstore",
      "brand:wikidata": "Q15904402",
      "brand:wikipedia": "zh:西西弗书店",
      "brand:zh": "西西弗书店",
      "name": "西西弗书店",
      "name:en": "Sisyphe Bookstore",
      "name:zh": "西西弗书店",
      "shop": "books"
    }
  },
  "shop/books|言几又": {
    "locationSet": {"include": ["cn"]},
    "tags": {
      "brand": "言几又",
      "brand:en": "Yan Ji You",
      "brand:wikidata": "Q56419889",
      "brand:wikipedia": "zh:言几又",
      "brand:zh": "言几又",
      "name": "言几又",
      "name:en": "Yan Ji You",
      "name:zh": "言几又",
      "shop": "books"
    }
  }
}