{
  "shop/electronics|100満ボルト": {
    "locationSet": {"include": ["jp"]},
    "tags": {
      "brand": "100満ボルト",
      "brand:en": "100mv",
      "brand:ja": "100満ボルト",
      "brand:wikidata": "Q11305504",
      "brand:wikipedia": "ja:サンキュー (小売)",
      "name": "100満ボルト",
      "name:en": "100mv",
      "name:ja": "100満ボルト",
      "shop": "electronics"
    }
  },
  "shop/electronics|ABC Warehouse": {
    "locationSet": {"include": ["us"]},
    "tags": {
      "brand": "ABC Warehouse",
      "brand:wikidata": "Q4650261",
      "brand:wikipedia": "en:ABC Warehouse",
      "name": "ABC Warehouse",
      "shop": "electronics"
    }
  },
  "shop/electronics|Altex": {
    "locationSet": {"include": ["001"]},
    "tags": {
      "brand": "Altex",
      "name": "Altex",
      "shop": "electronics"
    }
  },
  "shop/electronics|Apple Store": {
    "locationSet": {"include": ["001"]},
    "nomatch": ["amenity/bank|Apple Bank"],
    "tags": {
      "brand": "Apple Store",
      "brand:wikidata": "Q421253",
      "brand:wikipedia": "en:Apple Store",
      "name": "Apple Store",
      "shop": "electronics",
      "short_name": "Apple"
    }
  },
  "shop/electronics|BCC": {
    "locationSet": {"include": ["nl"]},
    "nomatch": ["amenity/bank|Bcc"],
    "tags": {
      "brand": "BCC",
      "name": "BCC",
      "shop": "electronics"
    }
  },
  "shop/electronics|Batteries Plus Bulbs": {
    "locationSet": {"include": ["us"]},
    "matchNames": ["batteries plus"],
    "tags": {
      "brand": "Batteries Plus Bulbs",
      "brand:wikidata": "Q17005157",
      "brand:wikipedia": "en:Batteries Plus Bulbs",
      "name": "Batteries Plus Bulbs",
      "shop": "electronics"
    }
  },
  "shop/electronics|Best Buy": {
    "locationSet": {"include": ["001"]},
    "nomatch": [
      "amenity/vending_machine|Best Buy Express",
      "shop/mobile_phone|Best Buy Mobile"
    ],
    "tags": {
      "brand": "Best Buy",
      "brand:wikidata": "Q533415",
      "brand:wikipedia": "en:Best Buy",
      "name": "Best Buy",
      "shop": "electronics"
    }
  },
  "shop/electronics|Bing Lee": {
    "locationSet": {"include": ["au"]},
    "tags": {
      "brand": "Bing Lee",
      "brand:wikidata": "Q4914136",
      "brand:wikipedia": "en:Bing Lee",
      "name": "Bing Lee",
      "shop": "electronics"
    }
  },
  "shop/electronics|Boulanger": {
    "locationSet": {"include": ["fr"]},
    "tags": {
      "brand": "Boulanger",
      "brand:wikidata": "Q2921695",
      "brand:wikipedia": "fr:Boulanger (entreprise)",
      "name": "Boulanger",
      "shop": "electronics"
    }
  },
  "shop/electronics|CeX": {
    "locationSet": {
      "include": [
        "au",
        "es",
        "gb",
        "ie",
        "in",
        "it",
        "mx",
        "nl",
        "pl",
        "pt"
      ]
    },
    "tags": {
      "brand": "CeX",
      "brand:wikidata": "Q5055676",
      "brand:wikipedia": "en:CeX (company)",
      "name": "CeX",
      "shop": "electronics"
    }
  },
  "shop/electronics|Coolblue": {
    "locationSet": {"include": ["be", "nl"]},
    "tags": {
      "brand": "Coolblue",
      "brand:wikidata": "Q4992516",
      "brand:wikipedia": "en:Coolblue",
      "name": "Coolblue",
      "shop": "electronics"
    }
  },
  "shop/electronics|Currys PC World": {
    "locationSet": {"include": ["gb", "ie"]},
    "matchNames": ["currys", "pc world"],
    "tags": {
      "brand": "Currys PC World",
      "brand:wikidata": "Q3246464",
      "brand:wikipedia": "en:Currys",
      "name": "Currys PC World",
      "shop": "electronics"
    }
  },
  "shop/electronics|Darty": {
    "locationSet": {"include": ["fr"]},
    "tags": {
      "brand": "Darty",
      "brand:wikidata": "Q2439098",
      "brand:wikipedia": "fr:Darty",
      "name": "Darty",
      "shop": "electronics"
    }
  },
  "shop/electronics|Datart": {
    "locationSet": {"include": ["cz", "sk"]},
    "tags": {
      "brand": "Datart",
      "brand:wikidata": "Q11774311",
      "brand:wikipedia": "cs:Datart",
      "name": "Datart",
      "shop": "electronics"
    }
  },
  "shop/electronics|Elektra": {
    "locationSet": {
      "include": ["gt", "hn", "pa", "pe", "sv"]
    },
    "tags": {
      "brand": "Elektra",
      "brand:wikidata": "Q1142753",
      "brand:wikipedia": "es:Grupo Elektra",
      "name": "Elektra",
      "shop": "electronics"
    }
  },
  "shop/electronics|Elgiganten": {
    "locationSet": {"include": ["dk", "se"]},
    "tags": {
      "brand": "Elgiganten",
      "brand:wikidata": "Q17050121",
      "brand:wikipedia": "en:Elgiganten",
      "name": "Elgiganten",
      "shop": "electronics"
    }
  },
  "shop/electronics|Euronics": {
    "locationSet": {"include": ["001"]},
    "tags": {
      "brand": "Euronics",
      "brand:wikidata": "Q184860",
      "brand:wikipedia": "en:Euronics",
      "name": "Euronics",
      "shop": "electronics"
    }
  },
  "shop/electronics|Expert": {
    "locationSet": {"include": ["001"]},
    "tags": {
      "brand": "Expert",
      "brand:wikidata": "Q680990",
      "brand:wikipedia": "en:Expert (company)",
      "name": "Expert",
      "shop": "electronics"
    }
  },
  "shop/electronics|Fry's Electronics": {
    "locationSet": {"include": ["us"]},
    "tags": {
      "brand": "Fry's Electronics",
      "brand:wikidata": "Q5506545",
      "brand:wikipedia": "en:Fry's Electronics",
      "name": "Fry's Electronics",
      "shop": "electronics",
      "short_name": "Fry's"
    }
  },
  "shop/electronics|Frávega": {
    "locationSet": {"include": ["ar"]},
    "tags": {
      "brand": "Frávega",
      "brand:wikidata": "Q5401467",
      "brand:wikipedia": "es:Frávega",
      "name": "Frávega",
      "shop": "electronics"
    }
  },
  "shop/electronics|Fust": {
    "locationSet": {"include": ["001"]},
    "tags": {
      "brand": "Fust",
      "name": "Fust",
      "shop": "electronics"
    }
  },
  "shop/electronics|Garbarino": {
    "locationSet": {"include": ["001"]},
    "tags": {
      "brand": "Garbarino",
      "brand:wikidata": "Q5875270",
      "brand:wikipedia": "es:Garbarino",
      "name": "Garbarino",
      "shop": "electronics"
    }
  },
  "shop/electronics|Gigantti": {
    "locationSet": {"include": ["fi"]},
    "tags": {
      "brand": "Gigantti",
      "brand:wikidata": "Q42512186",
      "brand:wikipedia": "fi:Gigantti (tavarataloketju)",
      "name": "Gigantti",
      "shop": "electronics"
    }
  },
  "shop/electronics|Gitem": {
    "locationSet": {"include": ["001"]},
    "tags": {
      "brand": "Gitem",
      "name": "Gitem",
      "shop": "electronics"
    }
  },
  "shop/electronics|Hartlauer": {
    "locationSet": {"include": ["at"]},
    "tags": {
      "brand": "Hartlauer",
      "brand:wikidata": "Q1587223",
      "brand:wikipedia": "de:Hartlauer",
      "name": "Hartlauer",
      "shop": "electronics"
    }
  },
  "shop/electronics|Interdiscount": {
    "locationSet": {"include": ["ch"]},
    "tags": {
      "brand": "Interdiscount",
      "brand:wikidata": "Q1665980",
      "brand:wikipedia": "de:Interdiscount",
      "name": "Interdiscount",
      "shop": "electronics"
    }
  },
  "shop/electronics|JB Hi-Fi": {
    "locationSet": {"include": ["au", "nz"]},
    "tags": {
      "brand": "JB Hi-Fi",
      "brand:wikidata": "Q3310113",
      "brand:wikipedia": "en:JB Hi-Fi",
      "name": "JB Hi-Fi",
      "shop": "electronics"
    }
  },
  "shop/electronics|Jaycar": {
    "locationSet": {"include": ["au", "nz"]},
    "tags": {
      "brand": "Jaycar",
      "brand:wikidata": "Q6167713",
      "brand:wikipedia": "en:Jaycar",
      "name": "Jaycar",
      "shop": "electronics"
    }
  },
  "shop/electronics|Kjell & Company": {
    "locationSet": {"include": ["no", "se"]},
    "matchNames": ["kjell och company"],
    "tags": {
      "brand": "Kjell & Company",
      "brand:wikidata": "Q6419332",
      "brand:wikipedia": "en:Kjell & Company",
      "name": "Kjell & Company",
      "shop": "electronics"
    }
  },
  "shop/electronics|Komputronik": {
    "locationSet": {"include": ["pl"]},
    "tags": {
      "brand": "Komputronik",
      "brand:wikidata": "Q11742085",
      "brand:wikipedia": "pl:Komputronik",
      "name": "Komputronik",
      "shop": "electronics"
    }
  },
  "shop/electronics|Krëfel": {
    "locationSet": {"include": ["fr", "nl"]},
    "tags": {
      "brand": "Krëfel",
      "brand:wikidata": "Q3200093",
      "brand:wikipedia": "fr:Krëfel",
      "name": "Krëfel",
      "shop": "electronics"
    }
  },
  "shop/electronics|LG": {
    "locationSet": {"include": ["001"]},
    "matchNames": ["lg electronics"],
    "tags": {
      "brand": "LG",
      "brand:wikidata": "Q162345",
      "brand:wikipedia": "en:LG Electronics",
      "name": "LG",
      "shop": "electronics"
    }
  },
  "shop/electronics|La Curacao": {
    "locationSet": {"include": ["001"]},
    "tags": {
      "brand": "La Curacao",
      "brand:wikidata": "Q5194599",
      "brand:wikipedia": "en:Curacao (retail store)",
      "name": "La Curacao",
      "shop": "electronics"
    }
  },
  "shop/electronics|M.Видео": {
    "locationSet": {"include": ["001"]},
    "tags": {
      "brand": "M.Видео",
      "name": "M.Видео",
      "shop": "electronics"
    }
  },
  "shop/electronics|MDA": {
    "locationSet": {"include": ["fr"]},
    "tags": {
      "brand": "MDA",
      "name": "MDA",
      "shop": "electronics"
    }
  },
  "shop/electronics|Maplin": {
    "locationSet": {"include": ["gb"]},
    "tags": {
      "brand": "Maplin",
      "brand:wikidata": "Q6754124",
      "brand:wikipedia": "en:Maplin (retailer)",
      "name": "Maplin",
      "shop": "electronics"
    }
  },
  "shop/electronics|Media Expert": {
    "locationSet": {"include": ["pl"]},
    "tags": {
      "brand": "Media Expert",
      "brand:wikidata": "Q11776794",
      "brand:wikipedia": "pl:Media Expert",
      "name": "Media Expert",
      "shop": "electronics"
    }
  },
  "shop/electronics|Media Markt": {
    "locationSet": {"include": ["001"]},
    "tags": {
      "brand": "Media Markt",
      "brand:wikidata": "Q2381223",
      "brand:wikipedia": "en:Media Markt",
      "name": "Media Markt",
      "shop": "electronics"
    }
  },
  "shop/electronics|Medimax": {
    "locationSet": {"include": ["de"]},
    "tags": {
      "brand": "Medimax",
      "brand:wikidata": "Q62872450",
      "name": "Medimax",
      "shop": "electronics"
    }
  },
  "shop/electronics|Microsoft Store": {
    "locationSet": {"include": ["ca", "us"]},
    "tags": {
      "brand": "Microsoft Store",
      "brand:wikidata": "Q1688786",
      "brand:wikipedia": "en:Microsoft Store",
      "name": "Microsoft Store",
      "shop": "electronics",
      "short_name": "Microsoft"
    }
  },
  "shop/electronics|Musimundo": {
    "locationSet": {"include": ["ar"]},
    "tags": {
      "brand": "Musimundo",
      "brand:wikidata": "Q6034719",
      "brand:wikipedia": "es:Musimundo",
      "name": "Musimundo",
      "shop": "electronics"
    }
  },
  "shop/electronics|Nay": {
    "locationSet": {"include": ["sk"]},
    "tags": {
      "brand": "Nay",
      "brand:wikidata": "Q13537421",
      "brand:wikipedia": "sk:Nay",
      "name": "Nay",
      "shop": "electronics"
    }
  },
  "shop/electronics|Neonet": {
    "locationSet": {"include": ["pl"]},
    "tags": {
      "brand": "Neonet",
      "brand:wikidata": "Q11790622",
      "brand:wikipedia": "pl:Neonet",
      "name": "Neonet",
      "shop": "electronics"
    }
  },
  "shop/electronics|Okay": {
    "locationSet": {"include": ["cz", "sk"]},
    "nomatch": ["shop/supermarket|Okay"],
    "tags": {
      "brand": "Okay",
      "brand:wikidata": "Q17583128",
      "brand:wikipedia": "sk:OKAY",
      "name": "Okay",
      "shop": "electronics"
    }
  },
  "shop/electronics|P. C. Richard & Son": {
    "locationSet": {"include": ["us"]},
    "matchNames": ["pc richard"],
    "tags": {
      "brand": "P. C. Richard & Son",
      "brand:wikidata": "Q7117161",
      "brand:wikipedia": "en:P. C. Richard & Son",
      "name": "P. C. Richard & Son",
      "shop": "electronics"
    }
  },
  "shop/electronics|Power": {
    "locationSet": {
      "include": ["dk", "fi", "no", "se"]
    },
    "nomatch": ["amenity/fuel|Power"],
    "tags": {
      "brand": "Power",
      "brand:wikidata": "Q20857751",
      "brand:wikipedia": "fi:Power",
      "name": "Power",
      "shop": "electronics"
    }
  },
  "shop/electronics|RTV Euro AGD": {
    "locationSet": {"include": ["pl"]},
    "tags": {
      "brand": "RTV Euro AGD",
      "brand:wikidata": "Q7277895",
      "brand:wikipedia": "pl:RTV Euro AGD",
      "name": "RTV Euro AGD",
      "shop": "electronics"
    }
  },
  "shop/electronics|RadioShack": {
    "locationSet": {"include": ["001"]},
    "tags": {
      "brand": "RadioShack",
      "brand:wikidata": "Q1195490",
      "brand:wikipedia": "en:RadioShack",
      "name": "RadioShack",
      "shop": "electronics"
    }
  },
  "shop/electronics|Robert Dyas": {
    "locationSet": {"include": ["gb"]},
    "tags": {
      "brand": "Robert Dyas",
      "brand:wikidata": "Q7343720",
      "brand:wikipedia": "en:Robert Dyas",
      "name": "Robert Dyas",
      "shop": "electronics"
    }
  },
  "shop/electronics|Samsung": {
    "locationSet": {"include": ["001"]},
    "tags": {
      "brand": "Samsung",
      "brand:wikidata": "Q20718",
      "brand:wikipedia": "en:Samsung Electronics",
      "name": "Samsung",
      "shop": "electronics"
    }
  },
  "shop/electronics|Saturn": {
    "locationSet": {
      "include": ["at", "de", "lu", "pl"]
    },
    "tags": {
      "brand": "Saturn",
      "brand:wikidata": "Q2543504",
      "brand:wikipedia": "en:Saturn (retailer)",
      "name": "Saturn",
      "shop": "electronics"
    }
  },
  "shop/electronics|Senheng": {
    "locationSet": {"include": ["my"]},
    "tags": {
      "brand": "Senheng",
      "brand:wikidata": "Q55632855",
      "brand:wikipedia": "en:Senheng Electric",
      "name": "Senheng",
      "shop": "electronics"
    }
  },
  "shop/electronics|Sony": {
    "locationSet": {"include": ["001"]},
    "tags": {
      "brand": "Sony",
      "brand:wikidata": "Q41187",
      "brand:wikipedia": "en:Sony",
      "name": "Sony",
      "shop": "electronics"
    }
  },
  "shop/electronics|Sony Centre": {
    "locationSet": {"include": ["001"]},
    "matchNames": ["sony center"],
    "tags": {
      "brand": "Sony Centre",
      "brand:wikidata": "Q3437496",
      "brand:wikipedia": "en:Sony Centre",
      "name": "Sony Centre",
      "shop": "electronics"
    }
  },
  "shop/electronics|Teknikmagasinet": {
    "locationSet": {
      "include": ["fi", "no", "se"]
    },
    "tags": {
      "brand": "Teknikmagasinet",
      "brand:wikidata": "Q3357520",
      "brand:wikipedia": "en:Teknikmagasinet",
      "name": "Teknikmagasinet",
      "shop": "electronics"
    }
  },
  "shop/electronics|The Good Guys": {
    "locationSet": {"include": ["au"]},
    "tags": {
      "brand": "The Good Guys",
      "brand:wikidata": "Q7737217",
      "brand:wikipedia": "en:The Good Guys (Australian company)",
      "name": "The Good Guys",
      "shop": "electronics"
    }
  },
  "shop/electronics|The Source": {
    "locationSet": {"include": ["ca"]},
    "tags": {
      "brand": "The Source",
      "brand:wikidata": "Q3212934",
      "brand:wikipedia": "en:The Source (retailer)",
      "name": "The Source",
      "shop": "electronics"
    }
  },
  "shop/electronics|Trony": {
    "locationSet": {"include": ["it"]},
    "tags": {
      "brand": "Trony",
      "brand:wikidata": "Q3999692",
      "brand:wikipedia": "it:Trony",
      "name": "Trony",
      "shop": "electronics"
    }
  },
  "shop/electronics|Unieuro": {
    "locationSet": {"include": ["it"]},
    "tags": {
      "brand": "Unieuro",
      "brand:wikidata": "Q4004687",
      "brand:wikipedia": "en:Unieuro",
      "name": "Unieuro",
      "shop": "electronics"
    }
  },
  "shop/electronics|Worten": {
    "locationSet": {"include": ["es", "pt"]},
    "tags": {
      "brand": "Worten",
      "brand:wikidata": "Q10394039",
      "brand:wikipedia": "pt:Worten",
      "name": "Worten",
      "shop": "electronics"
    }
  },
  "shop/electronics|b8ta": {
    "locationSet": {"include": ["us"]},
    "tags": {
      "brand": "b8ta",
      "brand:wikidata": "Q55604609",
      "brand:wikipedia": "en:B8ta",
      "name": "b8ta",
      "shop": "electronics"
    }
  },
  "shop/electronics|melectronics": {
    "locationSet": {"include": ["001"]},
    "tags": {
      "brand": "melectronics",
      "name": "melectronics",
      "shop": "electronics"
    }
  },
  "shop/electronics|М.Видео": {
    "locationSet": {"include": ["ru"]},
    "tags": {
      "brand": "М.Видео",
      "brand:en": "M.video",
      "brand:wikidata": "Q6558800",
      "brand:wikipedia": "en:M.video",
      "name": "М.Видео",
      "name:en": "M.video",
      "shop": "electronics"
    }
  },
  "shop/electronics|Фокстрот": {
    "locationSet": {"include": ["ua"]},
    "tags": {
      "brand": "Фокстрот",
      "brand:wikidata": "Q16721578",
      "brand:wikipedia": "uk:Фокстрот (торгова мережа)",
      "name": "Фокстрот",
      "shop": "electronics"
    }
  },
  "shop/electronics|Эксперт": {
    "locationSet": {"include": ["ru"]},
    "tags": {
      "brand": "Эксперт",
      "brand:en": "Expert",
      "brand:ru": "Эксперт",
      "brand:wikidata": "Q4530590",
      "brand:wikipedia": "ru:Эксперт (сеть магазинов)",
      "name": "Эксперт",
      "name:en": "Expert",
      "name:ru": "Эксперт",
      "shop": "electronics"
    }
  },
  "shop/electronics|Эльдорадо": {
    "locationSet": {"include": ["ru", "ua"]},
    "tags": {
      "brand": "Эльдорадо",
      "brand:wikidata": "Q4531492",
      "brand:wikipedia": "ru:Эльдорадо (сеть магазинов)",
      "name": "Эльдорадо",
      "shop": "electronics"
    }
  },
  "shop/electronics|あきばお〜": {
    "locationSet": {"include": ["jp"]},
    "matchNames": ["あきばお~"],
    "tags": {
      "brand": "あきばお〜",
      "brand:en": "Akibaoo",
      "brand:ja": "あきばお〜",
      "brand:wikidata": "Q11257009",
      "brand:wikipedia": "ja:あきばお〜",
      "name": "あきばお〜",
      "name:en": "Akibaoo",
      "name:ja": "あきばお〜",
      "shop": "electronics"
    }
  },
  "shop/electronics|エディオン": {
    "locationSet": {"include": ["jp"]},
    "matchNames": ["デオデオ"],
    "tags": {
      "brand": "エディオン",
      "brand:en": "EDION",
      "brand:ja": "エディオン",
      "brand:wikidata": "Q11290252",
      "brand:wikipedia": "ja:エディオン",
      "name": "エディオン",
      "name:en": "EDION",
      "name:ja": "エディオン",
      "shop": "electronics"
    }
  },
  "shop/electronics|ケーズデンキ": {
    "locationSet": {"include": ["jp"]},
    "matchTags": ["shop/appliance"],
    "tags": {
      "brand": "ケーズデンキ",
      "brand:en": "K's Denki",
      "brand:ja": "ケーズデンキ",
      "brand:wikidata": "Q6322472",
      "brand:wikipedia": "ja:ケーズホールディングス",
      "name": "ケーズデンキ",
      "name:en": "K's Denki",
      "name:ja": "ケーズデンキ",
      "shop": "electronics"
    }
  },
  "shop/electronics|コジマ": {
    "locationSet": {"include": ["jp"]},
    "tags": {
      "brand": "コジマ",
      "brand:en": "Kojima",
      "brand:ja": "コジマ",
      "brand:wikidata": "Q11302052",
      "brand:wikipedia": "ja:コジマ",
      "name": "コジマ",
      "name:en": "Kojima",
      "name:ja": "コジマ",
      "shop": "electronics"
    }
  },
  "shop/electronics|ソフマップ": {
    "locationSet": {"include": ["jp"]},
    "tags": {
      "brand": "ソフマップ",
      "brand:en": "Sofmap",
      "brand:ja": "ソフマップ",
      "brand:wikidata": "Q7553789",
      "brand:wikipedia": "ja:ソフマップ",
      "name": "ソフマップ",
      "name:en": "Sofmap",
      "name:ja": "ソフマップ",
      "shop": "electronics"
    }
  },
  "shop/electronics|デンキチ": {
    "locationSet": {"include": ["jp"]},
    "tags": {
      "brand": "デンキチ",
      "brand:en": "Denkichi",
      "brand:ja": "デンキチ",
      "brand:wikidata": "Q11272857",
      "brand:wikipedia": "ja:でんきち",
      "name": "デンキチ",
      "name:en": "Denkichi",
      "name:ja": "デンキチ",
      "shop": "electronics"
    }
  },
  "shop/electronics|ノジマ": {
    "locationSet": {"include": ["jp"]},
    "tags": {
      "brand": "ノジマ",
      "brand:en": "Nojima",
      "brand:ja": "ノジマ",
      "brand:wikidata": "Q11325660",
      "brand:wikipedia": "ja:ノジマ",
      "name": "ノジマ",
      "name:en": "Nojima",
      "name:ja": "ノジマ",
      "shop": "electronics"
    }
  },
  "shop/electronics|ビックカメラ": {
    "locationSet": {"include": ["jp"]},
    "tags": {
      "brand": "ビックカメラ",
      "brand:en": "Bic Camera",
      "brand:ja": "ビックカメラ",
      "brand:wikidata": "Q4903531",
      "brand:wikipedia": "ja:ビックカメラ",
      "name": "ビックカメラ",
      "name:en": "Bic Camera",
      "name:ja": "ビックカメラ",
      "shop": "electronics"
    }
  },
  "shop/electronics|ベスト電器": {
    "locationSet": {"include": ["jp"]},
    "matchTags": ["shop/appliance"],
    "tags": {
      "brand": "ベスト電器",
      "brand:en": "Best Denki",
      "brand:ja": "ベスト電器",
      "brand:wikidata": "Q701925",
      "brand:wikipedia": "ja:ベスト電器",
      "name": "ベスト電器",
      "name:en": "Best Denki",
      "name:ja": "ベスト電器",
      "shop": "electronics"
    }
  },
  "shop/electronics|ヤマダ電機": {
    "locationSet": {"include": ["jp"]},
    "tags": {
      "brand": "ヤマダ電機",
      "brand:en": "Yamada Denki",
      "brand:ja": "ヤマダ電機",
      "brand:wikidata": "Q1096390",
      "brand:wikipedia": "en:Yamada Denki",
      "name": "ヤマダ電機",
      "name:en": "Yamada Denki",
      "name:ja": "ヤマダ電機",
      "shop": "electronics"
    }
  },
  "shop/electronics|ヨドバシカメラ": {
    "locationSet": {"include": ["jp"]},
    "tags": {
      "brand": "ヨドバシカメラ",
      "brand:en": "Yodobashi Camera",
      "brand:ja": "ヨドバシカメラ",
      "brand:wikidata": "Q168467",
      "brand:wikipedia": "ja:ヨドバシカメラ",
      "name": "ヨドバシカメラ",
      "name:en": "Yodobashi Camera",
      "name:ja": "ヨドバシカメラ",
      "shop": "electronics"
    }
  },
  "shop/electronics|全國電子": {
    "locationSet": {"include": ["tw"]},
    "tags": {
      "brand": "全國電子",
      "brand:en": "E-life Mall",
      "brand:wikidata": "Q10891540",
      "brand:wikipedia": "zh:全國電子",
      "name": "全國電子",
      "name:en": "E-life Mall",
      "shop": "electronics"
    }
  },
  "shop/electronics|燦坤3C": {
    "locationSet": {"include": ["tw"]},
    "tags": {
      "brand": "燦坤3C",
      "brand:en": "Tsannkuen 3C",
      "brand:wikidata": "Q11569285",
      "brand:wikipedia": "zh:燦坤",
      "name": "燦坤3C",
      "name:en": "Tsannkuen 3C",
      "shop": "electronics"
    }
  }
}