{
  "shop/jewelry|Alex and Ani": {
    "locationSet": {"include": ["us"]},
    "tags": {
      "brand": "Alex and Ani",
      "brand:wikidata": "Q16198810",
      "brand:wikipedia": "en:Alex and Ani",
      "name": "Alex and Ani",
      "shop": "jewelry"
    }
  },
  "shop/jewelry|Apart": {
    "locationSet": {"include": ["pl"]},
    "tags": {
      "brand": "Apart",
      "brand:wikidata": "Q11686561",
      "brand:wikipedia": "pl:Apart",
      "name": "Apart",
      "shop": "jewelry"
    }
  },
  "shop/jewelry|Beaverbrooks": {
    "locationSet": {"include": ["gb"]},
    "tags": {
      "brand": "Beaverbrooks",
      "brand:wikidata": "Q4878226",
      "brand:wikipedia": "en:Beaverbrooks",
      "name": "Beaverbrooks",
      "shop": "jewelry"
    }
  },
  "shop/jewelry|Bijou Brigitte": {
    "locationSet": {"include": ["001"]},
    "tags": {
      "brand": "Bijou Brigitte",
      "brand:wikidata": "Q599545",
      "brand:wikipedia": "de:Bijou Brigitte",
      "name": "Bijou Brigitte",
      "shop": "jewelry"
    }
  },
  "shop/jewelry|Cartier": {
    "locationSet": {"include": ["001"]},
    "tags": {
      "brand": "Cartier",
      "brand:wikidata": "Q538587",
      "brand:wikipedia": "en:Cartier (jeweler)",
      "name": "Cartier",
      "shop": "jewelry"
    }
  },
  "shop/jewelry|Charm Diamond Centres": {
    "locationSet": {"include": ["ca"]},
    "matchNames": [
      "charm diamond",
      "charm diamond centre"
    ],
    "tags": {
      "brand": "Charm Diamond Centres",
      "brand:wikidata": "Q5086396",
      "brand:wikipedia": "en:Charm Diamond Centres",
      "name": "Charm Diamond Centres",
      "shop": "jewelry"
    }
  },
  "shop/jewelry|Chisholm Hunter": {
    "locationSet": {"include": ["gb"]},
    "tags": {
      "brand": "Chisholm Hunter",
      "brand:wikidata": "Q66662001",
      "name": "Chisholm Hunter",
      "shop": "jewelry"
    }
  },
  "shop/jewelry|Christ": {
    "locationSet": {
      "include": ["ch", "de", "nl"]
    },
    "tags": {
      "brand": "Christ",
      "brand:wikidata": "Q1077957",
      "brand:wikipedia": "de:Christ (Juwelier)",
      "name": "Christ",
      "shop": "jewelry"
    }
  },
  "shop/jewelry|David Yurman": {
    "locationSet": {"include": ["us"]},
    "tags": {
      "brand": "David Yurman",
      "brand:wikidata": "Q5241390",
      "brand:wikipedia": "en:David Yurman",
      "name": "David Yurman",
      "shop": "jewelry"
    }
  },
  "shop/jewelry|Ernest Jones": {
    "locationSet": {"include": ["gb"]},
    "tags": {
      "brand": "Ernest Jones",
      "brand:wikidata": "Q5393358",
      "brand:wikipedia": "en:Ernest Jones (retailer)",
      "name": "Ernest Jones",
      "shop": "jewelry"
    }
  },
  "shop/jewelry|F.Hinds": {
    "locationSet": {"include": ["gb"]},
    "tags": {
      "brand": "F.Hinds",
      "brand:wikidata": "Q5423915",
      "brand:wikipedia": "en:F. Hinds",
      "name": "F.Hinds",
      "shop": "jewelry"
    }
  },
  "shop/jewelry|Fred Meyer": {
    "locationSet": {"include": ["us"]},
    "nomatch": [
      "shop/department_store|Fred Meyer",
      "shop/supermarket|Fred Meyer"
    ],
    "tags": {
      "brand": "Fred Meyer",
      "brand:wikidata": "Q5495932",
      "brand:wikipedia": "en:Fred Meyer",
      "name": "Fred Meyer",
      "shop": "jewelry"
    }
  },
  "shop/jewelry|Goldsmiths": {
    "locationSet": {"include": ["gb"]},
    "tags": {
      "brand": "Goldsmiths",
      "brand:wikidata": "Q16993095",
      "brand:wikipedia": "en:Goldsmiths (retailer)",
      "name": "Goldsmiths",
      "shop": "jewelry"
    }
  },
  "shop/jewelry|Guldfynd": {
    "locationSet": {"include": ["se"]},
    "tags": {
      "brand": "Guldfynd",
      "brand:wikidata": "Q49099223",
      "brand:wikipedia": "sv:Guldfynd",
      "name": "Guldfynd",
      "shop": "jewelry"
    }
  },
  "shop/jewelry|H.Samuel": {
    "locationSet": {"include": ["gb"]},
    "tags": {
      "brand": "H.Samuel",
      "brand:wikidata": "Q5628558",
      "brand:wikipedia": "en:H. Samuel",
      "name": "H.Samuel",
      "shop": "jewelry"
    }
  },
  "shop/jewelry|Helzberg Diamonds": {
    "locationSet": {"include": ["us"]},
    "tags": {
      "brand": "Helzberg Diamonds",
      "brand:wikidata": "Q16995161",
      "brand:wikipedia": "en:Helzberg Diamonds",
      "name": "Helzberg Diamonds",
      "shop": "jewelry"
    }
  },
  "shop/jewelry|Histoire d'Or": {
    "locationSet": {
      "include": ["be", "fr", "it", "nl"]
    },
    "tags": {
      "brand": "Histoire d'Or",
      "brand:wikidata": "Q62529245",
      "name": "Histoire d'Or",
      "shop": "jewelry"
    }
  },
  "shop/jewelry|Icing": {
    "locationSet": {"include": ["ca", "us"]},
    "tags": {
      "brand": "Icing",
      "name": "Icing",
      "shop": "jewelry"
    }
  },
  "shop/jewelry|James Avery Jewelry": {
    "locationSet": {"include": ["us"]},
    "tags": {
      "brand": "James Avery Jewelry",
      "brand:wikidata": "Q6129024",
      "brand:wikipedia": "en:James Avery Artisan Jewelry",
      "name": "James Avery Jewelry",
      "shop": "jewelry"
    }
  },
  "shop/jewelry|Jared": {
    "locationSet": {"include": ["us"]},
    "tags": {
      "brand": "Jared",
      "brand:wikidata": "Q62029282",
      "name": "Jared",
      "shop": "jewelry"
    }
  },
  "shop/jewelry|Julien d'Orcel": {
    "locationSet": {"include": ["fr"]},
    "tags": {
      "brand": "Julien d'Orcel",
      "brand:wikidata": "Q62497463",
      "name": "Julien d'Orcel",
      "shop": "jewelry"
    }
  },
  "shop/jewelry|Kay Jewelers": {
    "locationSet": {"include": ["us"]},
    "tags": {
      "brand": "Kay Jewelers",
      "brand:wikidata": "Q62029290",
      "name": "Kay Jewelers",
      "shop": "jewelry"
    }
  },
  "shop/jewelry|Lucardi": {
    "locationSet": {"include": ["nl"]},
    "tags": {
      "brand": "Lucardi",
      "brand:wikidata": "Q13774940",
      "brand:wikipedia": "nl:Lucardi",
      "name": "Lucardi",
      "shop": "jewelry"
    }
  },
  "shop/jewelry|Michael Hill": {
    "locationSet": {
      "include": ["au", "ca", "nz", "us"]
    },
    "tags": {
      "brand": "Michael Hill",
      "brand:wikidata": "Q3308250",
      "brand:wikipedia": "en:Michael Hill Jeweller",
      "name": "Michael Hill",
      "shop": "jewelry"
    }
  },
  "shop/jewelry|PNJ": {
    "locationSet": {"include": ["vn"]},
    "tags": {
      "brand": "PNJ",
      "brand:wikidata": "Q61129183",
      "brand:wikipedia": "vi:PNJ",
      "name": "PNJ",
      "shop": "jewelry"
    }
  },
  "shop/jewelry|Pandora": {
    "locationSet": {"include": ["001"]},
    "tags": {
      "brand": "Pandora",
      "brand:wikidata": "Q2241604",
      "brand:wikipedia": "en:Pandora (jewelry)",
      "name": "Pandora",
      "shop": "jewelry"
    }
  },
  "shop/jewelry|Peoples Jewellers": {
    "locationSet": {"include": ["ca"]},
    "tags": {
      "brand": "Peoples Jewellers",
      "brand:wikidata": "Q64995558",
      "name": "Peoples Jewellers",
      "shop": "jewelry"
    }
  },
  "shop/jewelry|Piercing Pagoda": {
    "locationSet": {"include": ["us"]},
    "tags": {
      "brand": "Piercing Pagoda",
      "name": "Piercing Pagoda",
      "shop": "jewelry"
    }
  },
  "shop/jewelry|Swarovski": {
    "locationSet": {"include": ["001"]},
    "tags": {
      "brand": "Swarovski",
      "brand:wikidata": "Q611115",
      "brand:wikipedia": "en:Swarovski",
      "name": "Swarovski",
      "shop": "jewelry"
    }
  },
  "shop/jewelry|Thomas Sabo": {
    "locationSet": {"include": ["001"]},
    "tags": {
      "brand": "Thomas Sabo",
      "brand:wikidata": "Q13415716",
      "brand:wikipedia": "en:Thomas Sabo",
      "name": "Thomas Sabo",
      "shop": "jewelry"
    }
  },
  "shop/jewelry|Tiffany & Company": {
    "locationSet": {"include": ["001"]},
    "matchNames": ["tiffany", "tiffany's"],
    "tags": {
      "brand": "Tiffany & Company",
      "brand:wikidata": "Q1066858",
      "brand:wikipedia": "en:Tiffany & Co.",
      "name": "Tiffany & Company",
      "official_name": "Tiffany & Co.",
      "shop": "jewelry"
    }
  },
  "shop/jewelry|Tous": {
    "locationSet": {"include": ["001"]},
    "tags": {
      "brand": "Tous",
      "brand:wikidata": "Q3815128",
      "brand:wikipedia": "en:Tous (company)",
      "name": "Tous",
      "shop": "jewelry"
    }
  },
  "shop/jewelry|Warren James": {
    "locationSet": {"include": ["gb"]},
    "tags": {
      "brand": "Warren James",
      "brand:wikidata": "Q19604616",
      "brand:wikipedia": "en:Warren James Jewellers",
      "name": "Warren James",
      "shop": "jewelry"
    }
  },
  "shop/jewelry|Zales": {
    "locationSet": {"include": ["us"]},
    "tags": {
      "brand": "Zales",
      "brand:wikidata": "Q8065305",
      "brand:wikipedia": "en:Zale Corporation",
      "name": "Zales",
      "shop": "jewelry"
    }
  },
  "shop/jewelry|Ziko": {
    "locationSet": {"include": ["001"]},
    "tags": {
      "brand": "Ziko",
      "name": "Ziko",
      "shop": "jewelry"
    }
  },
  "shop/jewelry|Адамас": {
    "locationSet": {"include": ["ru"]},
    "tags": {
      "brand": "Адамас",
      "brand:en": "Adamas",
      "brand:ru": "Адамас",
      "brand:wikidata": "Q62393709",
      "name": "Адамас",
      "name:en": "Adamas",
      "name:ru": "Адамас",
      "shop": "jewelry"
    }
  },
  "shop/jewelry|Золотая мечта": {
    "locationSet": {"include": ["by"]},
    "tags": {
      "brand": "Золотая мечта",
      "brand:en": "Gold Dream",
      "brand:ru": "Золотая мечта",
      "name": "Золотая мечта",
      "name:en": "Gold Dream",
      "name:ru": "Золотая мечта",
      "shop": "jewelry"
    }
  },
  "shop/jewelry|ツツミ": {
    "locationSet": {"include": ["jp"]},
    "tags": {
      "brand": "ツツミ",
      "brand:en": "Tsutsumi",
      "brand:ja": "ツツミ",
      "brand:wikidata": "Q11318759",
      "brand:wikipedia": "ja:ツツミ",
      "name": "ツツミ",
      "name:en": "Tsutsumi",
      "name:ja": "ツツミ",
      "official_name": "ジュエリーツツミ",
      "official_name:en": "Jewelry Tsutsumi",
      "official_name:ja": "ジュエリーツツミ",
      "shop": "jewelry"
    }
  },
  "shop/jewelry|六福珠宝": {
    "locationSet": {
      "include": [
        "au",
        "ca",
        "cn",
        "kh",
        "my",
        "sg",
        "us"
      ]
    },
    "tags": {
      "brand": "六福珠宝",
      "brand:en": "LukFook Jewellery",
      "brand:wikidata": "Q10893397",
      "brand:wikipedia": "en:LukFook",
      "brand:zh": "六福珠宝",
      "name": "六福珠宝",
      "name:en": "LukFook Jewellery",
      "name:zh": "六福珠宝",
      "shop": "jewelry"
    }
  },
  "shop/jewelry|周大福": {
    "locationSet": {
      "include": [
        "cn",
        "jp",
        "kr",
        "my",
        "sg",
        "tw",
        "us"
      ]
    },
    "tags": {
      "brand": "周大福",
      "brand:en": "Chow Tai Fook",
      "brand:wikidata": "Q48880993",
      "brand:wikipedia": "en:Chow Tai Fook",
      "brand:zh": "周大福",
      "name": "周大福",
      "name:en": "Chow Tai Fook",
      "name:zh": "周大福",
      "shop": "jewelry"
    }
  },
  "shop/jewelry|周生生": {
    "locationSet": {"include": ["cn", "tw"]},
    "tags": {
      "brand": "周生生",
      "brand:en": "Chow Sang Sang",
      "brand:wikidata": "Q10920877",
      "brand:wikipedia": "en:Chow Sang Sang",
      "brand:zh": "周生生",
      "name": "周生生",
      "name:en": "Chow Sang Sang",
      "name:zh": "周生生",
      "shop": "jewelry"
    }
  },
  "shop/jewelry|老凤祥": {
    "locationSet": {
      "include": ["au", "ca", "cn", "us"]
    },
    "tags": {
      "brand": "老凤祥",
      "brand:en": "Lao Feng Xiang",
      "brand:wikidata": "Q15910313",
      "brand:wikipedia": "en:Lao Feng Xiang",
      "brand:zh": "老凤祥",
      "name": "老凤祥",
      "name:en": "Lao Feng Xiang",
      "name:zh": "老凤祥",
      "shop": "jewelry"
    }
  }
}