{
  "shop/massage|Hand & Stone Massage and Facial Spa": {
    "locationSet": {"include": ["us"]},
    "matchNames": ["hand and stone massage"],
    "tags": {
      "brand": "Hand & Stone Massage and Facial Spa",
      "brand:wikidata": "Q55613342",
      "brand:wikipedia": "en:Hand & Stone Massage and Facial Spa",
      "name": "Hand & Stone Massage and Facial Spa",
      "shop": "massage"
    }
  },
  "shop/massage|Massage Envy": {
    "locationSet": {"include": ["us"]},
    "matchNames": ["massage envy spa"],
    "tags": {
      "brand": "Massage Envy",
      "brand:wikidata": "Q22922899",
      "brand:wikipedia": "en:Massage Envy",
      "name": "Massage Envy",
      "shop": "massage"
    }
  },
  "shop/massage|Massage Heights": {
    "locationSet": {"include": ["ca", "us"]},
    "tags": {
      "brand": "Massage Heights",
      "brand:wikidata": "Q64573956",
      "name": "Massage Heights",
      "shop": "massage"
    }
  },
  "shop/massage|Re.Ra.Ku": {
    "locationSet": {"include": ["jp"]},
    "tags": {
      "brand": "Re.Ra.Ku",
      "brand:en": "Re.Ra.Ku",
      "brand:ja": "リラク",
      "brand:wikidata": "Q92941605",
      "name": "Re.Ra.Ku",
      "name:en": "Re.Ra.Ku",
      "name:ja": "リラク",
      "shop": "massage"
    }
  },
  "shop/massage|Thai Massage": {
    "locationSet": {"include": ["001"]},
    "tags": {
      "brand": "Thai Massage",
      "name": "Thai Massage",
      "shop": "massage"
    }
  },
  "shop/massage|りらくる": {
    "locationSet": {"include": ["jp"]},
    "tags": {
      "brand": "りらくる",
      "brand:en": "RELXLE",
      "brand:ja": "りらくる",
      "brand:wikidata": "Q92944647",
      "name": "りらくる",
      "name:en": "RELXLE",
      "name:ja": "りらくる",
      "shop": "massage"
    }
  },
  "shop/massage|カラダファクトリー": {
    "locationSet": {"include": ["jp"]},
    "tags": {
      "brand": "カラダファクトリー",
      "brand:en": "Karada Factory",
      "brand:ja": "カラダファクトリー",
      "brand:wikidata": "Q87833239",
      "name": "カラダファクトリー",
      "name:en": "Karada Factory",
      "name:ja": "カラダファクトリー",
      "shop": "massage"
    }
  }
}