{
  "shop/mobile_phone|3 Store": {
    "locationSet": {"include": ["gb", "it"]},
    "matchNames": ["3", "three", "three store"],
    "tags": {
      "brand": "3 Store",
      "brand:wikidata": "Q407009",
      "brand:wikipedia": "en:3 (telecommunications)",
      "name": "3 Store",
      "shop": "mobile_phone"
    }
  },
  "shop/mobile_phone|A1": {
    "locationSet": {
      "include": ["at", "bg", "by", "hr", "si"]
    },
    "matchNames": [
      "velcom",
      "velcom|a1",
      "велком"
    ],
    "nomatch": ["shop/telecommunication|A1"],
    "tags": {
      "brand": "A1",
      "brand:wikidata": "Q688755",
      "brand:wikipedia": "en:A1 Telekom Austria Group",
      "name": "A1",
      "shop": "mobile_phone"
    }
  },
  "shop/mobile_phone|AT&T": {
    "locationSet": {"include": ["mx", "us"]},
    "matchNames": [
      "att mobile",
      "att mobility",
      "att wireless"
    ],
    "tags": {
      "brand": "AT&T",
      "brand:wikidata": "Q298594",
      "brand:wikipedia": "en:AT&T Mobility",
      "name": "AT&T",
      "shop": "mobile_phone"
    }
  },
  "shop/mobile_phone|Bell": {
    "locationSet": {"include": ["ca"]},
    "matchNames": [
      "bell mobile",
      "bell mobility",
      "bell wireless"
    ],
    "nomatch": ["shop/telecommunication|Bell"],
    "tags": {
      "brand": "Bell",
      "brand:wikidata": "Q2894594",
      "brand:wikipedia": "en:Bell Mobility",
      "name": "Bell",
      "shop": "mobile_phone"
    }
  },
  "shop/mobile_phone|Best Buy Mobile": {
    "locationSet": {"include": ["ca"]},
    "nomatch": [
      "amenity/vending_machine|Best Buy Express",
      "shop/electronics|Best Buy"
    ],
    "tags": {
      "brand": "Best Buy Mobile",
      "brand:wikidata": "Q533415",
      "brand:wikipedia": "en:Best Buy",
      "name": "Best Buy Mobile",
      "shop": "mobile_phone"
    }
  },
  "shop/mobile_phone|Bitė": {
    "locationSet": {"include": ["lt"]},
    "tags": {
      "brand": "Bitė",
      "brand:wikidata": "Q796010",
      "brand:wikipedia": "lt:Bitės grupė",
      "name": "Bitė",
      "shop": "mobile_phone"
    }
  },
  "shop/mobile_phone|Boost Mobile": {
    "locationSet": {"include": ["us"]},
    "matchNames": ["boost"],
    "tags": {
      "brand": "Boost Mobile",
      "brand:wikidata": "Q4943790",
      "brand:wikipedia": "en:Boost Mobile",
      "name": "Boost Mobile",
      "shop": "mobile_phone"
    }
  },
  "shop/mobile_phone|Bouygues Telecom": {
    "locationSet": {"include": ["fr"]},
    "tags": {
      "brand": "Bouygues Telecom",
      "brand:wikidata": "Q581438",
      "brand:wikipedia": "fr:Bouygues Telecom",
      "name": "Bouygues Telecom",
      "shop": "mobile_phone"
    }
  },
  "shop/mobile_phone|Carphone Warehouse": {
    "locationSet": {
      "include": ["by", "gb", "ie"]
    },
    "matchNames": ["the carphone warehouse"],
    "tags": {
      "brand": "Carphone Warehouse",
      "brand:wikidata": "Q118046",
      "brand:wikipedia": "en:Carphone Warehouse",
      "name": "Carphone Warehouse",
      "shop": "mobile_phone"
    }
  },
  "shop/mobile_phone|Chatr": {
    "locationSet": {"include": ["ca"]},
    "matchNames": ["chatr mobile"],
    "tags": {
      "brand": "Chatr",
      "brand:wikidata": "Q5087766",
      "brand:wikipedia": "en:Chatr",
      "name": "Chatr",
      "shop": "mobile_phone"
    }
  },
  "shop/mobile_phone|Claro": {
    "locationSet": {"include": ["001"]},
    "tags": {
      "brand": "Claro",
      "brand:wikidata": "Q1770208",
      "brand:wikipedia": "en:Claro (company)",
      "name": "Claro",
      "shop": "mobile_phone"
    }
  },
  "shop/mobile_phone|Cosmote": {
    "locationSet": {"include": ["gr"]},
    "tags": {
      "brand": "Cosmote",
      "brand:wikidata": "Q1136203",
      "brand:wikipedia": "el:Cosmote",
      "name": "Cosmote",
      "shop": "mobile_phone"
    }
  },
  "shop/mobile_phone|Cricket Wireless": {
    "locationSet": {"include": ["us"]},
    "matchNames": ["cricket"],
    "tags": {
      "brand": "Cricket Wireless",
      "brand:wikidata": "Q5184987",
      "brand:wikipedia": "en:Cricket Wireless",
      "name": "Cricket Wireless",
      "shop": "mobile_phone"
    }
  },
  "shop/mobile_phone|Digicel": {
    "locationSet": {"include": ["001"]},
    "tags": {
      "brand": "Digicel",
      "brand:wikidata": "Q2117506",
      "brand:wikipedia": "en:Digicel",
      "name": "Digicel",
      "shop": "mobile_phone"
    }
  },
  "shop/mobile_phone|EE": {
    "locationSet": {"include": ["gb"]},
    "tags": {
      "brand": "EE",
      "brand:wikidata": "Q5322942",
      "brand:wikipedia": "en:EE Limited",
      "name": "EE",
      "shop": "mobile_phone"
    }
  },
  "shop/mobile_phone|Entel": {
    "locationSet": {"include": ["cl", "pe"]},
    "tags": {
      "brand": "Entel",
      "brand:wikidata": "Q450420",
      "brand:wikipedia": "en:Entel (Chile)",
      "name": "Entel",
      "shop": "mobile_phone"
    }
  },
  "shop/mobile_phone|Fido": {
    "locationSet": {"include": ["ca"]},
    "tags": {
      "brand": "Fido",
      "brand:wikidata": "Q3071471",
      "brand:wikipedia": "en:Fido Solutions",
      "name": "Fido",
      "shop": "mobile_phone"
    }
  },
  "shop/mobile_phone|Freedom Mobile": {
    "locationSet": {"include": ["ca"]},
    "matchNames": ["freedom", "wind mobile"],
    "tags": {
      "brand": "Freedom Mobile",
      "brand:wikidata": "Q8023931",
      "brand:wikipedia": "en:Freedom Mobile",
      "name": "Freedom Mobile",
      "shop": "mobile_phone"
    }
  },
  "shop/mobile_phone|Huawei": {
    "locationSet": {"include": ["001"]},
    "tags": {
      "brand": "Huawei",
      "brand:wikidata": "Q160120",
      "brand:wikipedia": "en:Huawei",
      "brand:zh": "华为",
      "name": "Huawei",
      "name:zh": "华为",
      "shop": "mobile_phone"
    }
  },
  "shop/mobile_phone|Koodo": {
    "locationSet": {"include": ["ca"]},
    "tags": {
      "brand": "Koodo",
      "brand:wikidata": "Q6430529",
      "brand:wikipedia": "en:Koodo Mobile",
      "name": "Koodo",
      "shop": "mobile_phone"
    }
  },
  "shop/mobile_phone|MEO": {
    "locationSet": {"include": ["001"]},
    "matchNames": ["loja meo"],
    "tags": {
      "brand": "MEO",
      "brand:wikidata": "Q3306167",
      "brand:wikipedia": "en:MEO (telecommunications company)",
      "name": "MEO",
      "shop": "mobile_phone"
    }
  },
  "shop/mobile_phone|MTN": {
    "locationSet": {"include": ["001"]},
    "matchNames": ["agence mtn"],
    "tags": {
      "brand": "MTN",
      "brand:wikidata": "Q1813361",
      "brand:wikipedia": "en:MTN Group",
      "name": "MTN",
      "shop": "mobile_phone"
    }
  },
  "shop/mobile_phone|MetroPCS": {
    "locationSet": {"include": ["us"]},
    "nomatch": [
      "amenity/bank|Metro Bank~(UK)",
      "amenity/bank|Metrobank~(Philippines)",
      "shop/supermarket|Metro~(Ontario)",
      "shop/supermarket|Metro~(Peru)",
      "shop/supermarket|Metro~(Quebec)",
      "shop/wholesale|Metro"
    ],
    "tags": {
      "brand": "MetroPCS",
      "brand:wikidata": "Q1925685",
      "brand:wikipedia": "en:Metro by T-Mobile",
      "name": "MetroPCS",
      "shop": "mobile_phone"
    }
  },
  "shop/mobile_phone|Mobilcom Debitel": {
    "locationSet": {"include": ["de", "ir"]},
    "matchNames": ["debitel"],
    "tags": {
      "brand": "Mobilcom Debitel",
      "brand:wikidata": "Q344744",
      "brand:wikipedia": "en:Debitel",
      "name": "Mobilcom Debitel",
      "shop": "mobile_phone"
    }
  },
  "shop/mobile_phone|Mobilezone": {
    "locationSet": {"include": ["001"]},
    "tags": {
      "brand": "Mobilezone",
      "brand:wikidata": "Q1680518",
      "brand:wikipedia": "de:Mobilezone",
      "name": "Mobilezone",
      "shop": "mobile_phone"
    }
  },
  "shop/mobile_phone|Moov": {
    "locationSet": {"include": ["ci", "tg"]},
    "matchNames": ["agence moov"],
    "tags": {
      "brand": "Moov",
      "brand:wikidata": "Q3323637",
      "brand:wikipedia": "fr:Moov Côte d'Ivoire",
      "name": "Moov",
      "shop": "mobile_phone"
    }
  },
  "shop/mobile_phone|Movistar": {
    "locationSet": {"include": ["001"]},
    "tags": {
      "brand": "Movistar",
      "brand:wikidata": "Q967735",
      "brand:wikipedia": "en:Movistar",
      "name": "Movistar",
      "shop": "mobile_phone"
    }
  },
  "shop/mobile_phone|NOS": {
    "locationSet": {"include": ["001"]},
    "tags": {
      "brand": "NOS",
      "brand:wikidata": "Q136331",
      "brand:wikipedia": "en:NOS (Portuguese media company)",
      "name": "NOS",
      "shop": "mobile_phone"
    }
  },
  "shop/mobile_phone|O2": {
    "locationSet": {
      "include": ["cz", "de", "gb", "ie", "sk"]
    },
    "tags": {
      "brand": "O2",
      "brand:wikidata": "Q1759255",
      "brand:wikipedia": "en:Telefónica Europe",
      "name": "O2",
      "shop": "mobile_phone"
    }
  },
  "shop/mobile_phone|Oppo": {
    "locationSet": {"include": ["001"]},
    "tags": {
      "brand": "Oppo",
      "brand:wikidata": "Q2084900",
      "brand:wikipedia": "en:Oppo",
      "name": "Oppo",
      "shop": "mobile_phone"
    }
  },
  "shop/mobile_phone|Optie1": {
    "locationSet": {"include": ["nl"]},
    "tags": {
      "brand": "Optie1",
      "brand:wikidata": "Q62393564",
      "name": "Optie1",
      "shop": "mobile_phone"
    }
  },
  "shop/mobile_phone|Optus": {
    "locationSet": {"include": ["au"]},
    "tags": {
      "brand": "Optus",
      "brand:wikidata": "Q865038",
      "name": "Optus",
      "shop": "mobile_phone"
    }
  },
  "shop/mobile_phone|Orange": {
    "locationSet": {"include": ["001"]},
    "matchNames": ["agence orange"],
    "tags": {
      "brand": "Orange",
      "brand:wikidata": "Q1431486",
      "brand:wikipedia": "fr:Orange (entreprise)",
      "name": "Orange",
      "shop": "mobile_phone"
    }
  },
  "shop/mobile_phone|Personal": {
    "locationSet": {"include": ["ar", "py"]},
    "tags": {
      "brand": "Personal",
      "brand:wikidata": "Q10933021",
      "brand:wikipedia": "es:Personal (Argentina)",
      "name": "Personal",
      "shop": "mobile_phone"
    }
  },
  "shop/mobile_phone|Phone House": {
    "locationSet": {
      "include": ["de", "es", "fr", "nl", "pt"]
    },
    "matchNames": ["the phone house"],
    "tags": {
      "brand": "Phone House",
      "brand:wikidata": "Q118046",
      "brand:wikipedia": "en:Carphone Warehouse",
      "name": "Phone House",
      "shop": "mobile_phone"
    }
  },
  "shop/mobile_phone|Play": {
    "locationSet": {"include": ["pl"]},
    "tags": {
      "brand": "Play",
      "brand:wikidata": "Q7202998",
      "brand:wikipedia": "pl:Play (sieć telefonii komórkowej)",
      "name": "Play",
      "shop": "mobile_phone"
    }
  },
  "shop/mobile_phone|Plus": {
    "locationSet": {"include": ["pl"]},
    "nomatch": [
      "amenity/fuel|Gas Plus",
      "shop/supermarket|PLUS"
    ],
    "tags": {
      "brand": "Plus",
      "brand:wikidata": "Q7205598",
      "brand:wikipedia": "pl:Plus (sieć telefonii komórkowej)",
      "name": "Plus",
      "shop": "mobile_phone"
    }
  },
  "shop/mobile_phone|Rogers": {
    "locationSet": {"include": ["ca"]},
    "tags": {
      "brand": "Rogers",
      "brand:wikidata": "Q3439663",
      "brand:wikipedia": "en:Rogers Wireless",
      "name": "Rogers",
      "shop": "mobile_phone"
    }
  },
  "shop/mobile_phone|SFR": {
    "locationSet": {"include": ["fr", "lu"]},
    "matchNames": ["espace sfr"],
    "tags": {
      "brand": "SFR",
      "brand:wikidata": "Q218765",
      "brand:wikipedia": "en:SFR",
      "name": "SFR",
      "shop": "mobile_phone"
    }
  },
  "shop/mobile_phone|Salt": {
    "locationSet": {"include": ["001"]},
    "tags": {
      "brand": "Salt",
      "name": "Salt",
      "shop": "mobile_phone"
    }
  },
  "shop/mobile_phone|Sprint": {
    "locationSet": {"include": ["001"]},
    "nomatch": ["amenity/fuel|Sprint"],
    "tags": {
      "brand": "Sprint",
      "brand:wikidata": "Q301965",
      "brand:wikipedia": "en:Sprint Corporation",
      "name": "Sprint",
      "shop": "mobile_phone"
    }
  },
  "shop/mobile_phone|Sunrise Shop": {
    "locationSet": {"include": ["001"]},
    "tags": {
      "brand": "Sunrise Shop",
      "name": "Sunrise Shop",
      "shop": "mobile_phone"
    }
  },
  "shop/mobile_phone|Swisscom Shop": {
    "locationSet": {"include": ["001"]},
    "tags": {
      "brand": "Swisscom Shop",
      "name": "Swisscom Shop",
      "shop": "mobile_phone"
    }
  },
  "shop/mobile_phone|T-Mobile": {
    "locationSet": {"include": ["001"]},
    "tags": {
      "brand": "T-Mobile",
      "brand:wikidata": "Q327634",
      "brand:wikipedia": "en:T-Mobile",
      "name": "T-Mobile",
      "shop": "mobile_phone"
    }
  },
  "shop/mobile_phone|TIM": {
    "locationSet": {"include": ["br", "it"]},
    "tags": {
      "brand": "TIM",
      "brand:wikidata": "Q144617",
      "brand:wikipedia": "en:Telecom Italia",
      "name": "TIM",
      "shop": "mobile_phone"
    }
  },
  "shop/mobile_phone|Tbooth Wireless": {
    "locationSet": {"include": ["ca"]},
    "tags": {
      "brand": "Tbooth Wireless",
      "brand:wikidata": "Q7690597",
      "name": "Tbooth Wireless",
      "shop": "mobile_phone"
    }
  },
  "shop/mobile_phone|Telcel": {
    "locationSet": {"include": ["cu", "mx"]},
    "tags": {
      "brand": "Telcel",
      "brand:wikidata": "Q3517255",
      "brand:wikipedia": "en:Telcel",
      "name": "Telcel",
      "shop": "mobile_phone"
    }
  },
  "shop/mobile_phone|Tele2": {
    "locationSet": {"include": ["001"]},
    "tags": {
      "brand": "Tele2",
      "brand:wikidata": "Q309865",
      "brand:wikipedia": "en:Tele2",
      "name": "Tele2",
      "shop": "mobile_phone"
    }
  },
  "shop/mobile_phone|Telekom": {
    "locationSet": {
      "include": ["de", "hu", "ro", "si", "sk"]
    },
    "matchNames": ["telekom shop"],
    "tags": {
      "brand": "Telekom",
      "brand:wikidata": "Q9396",
      "brand:wikipedia": "en:Deutsche Telekom",
      "name": "Telekom",
      "shop": "mobile_phone"
    }
  },
  "shop/mobile_phone|Telenor": {
    "locationSet": {"include": ["001"]},
    "tags": {
      "brand": "Telenor",
      "brand:wikidata": "Q845632",
      "brand:wikipedia": "en:Telenor",
      "name": "Telenor",
      "shop": "mobile_phone"
    }
  },
  "shop/mobile_phone|Telia": {
    "locationSet": {
      "include": ["dk", "fi", "lt", "no", "se"]
    },
    "tags": {
      "brand": "Telia",
      "brand:wikidata": "Q862303",
      "brand:wikipedia": "en:Telia Company",
      "name": "Telia",
      "shop": "mobile_phone"
    }
  },
  "shop/mobile_phone|Telstra": {
    "locationSet": {"include": ["au"]},
    "tags": {
      "brand": "Telstra",
      "brand:wikidata": "Q721162",
      "brand:wikipedia": "en:Telstra",
      "name": "Telstra",
      "shop": "mobile_phone"
    }
  },
  "shop/mobile_phone|Telus": {
    "locationSet": {"include": ["ca"]},
    "tags": {
      "brand": "Telus",
      "brand:wikidata": "Q165858",
      "brand:wikipedia": "en:Telus",
      "name": "Telus",
      "shop": "mobile_phone"
    }
  },
  "shop/mobile_phone|Turkcell": {
    "locationSet": {"include": ["cy", "tr"]},
    "tags": {
      "brand": "Turkcell",
      "brand:wikidata": "Q283852",
      "brand:wikipedia": "en:Turkcell",
      "name": "Turkcell",
      "shop": "mobile_phone"
    }
  },
  "shop/mobile_phone|U.S. Cellular": {
    "locationSet": {"include": ["us"]},
    "tags": {
      "brand": "U.S. Cellular",
      "brand:wikidata": "Q2466256",
      "brand:wikipedia": "en:U.S. Cellular",
      "name": "U.S. Cellular",
      "shop": "mobile_phone"
    }
  },
  "shop/mobile_phone|UQモバイル": {
    "locationSet": {"include": ["jp"]},
    "matchNames": ["ユーキューモバイル"],
    "tags": {
      "brand": "UQモバイル",
      "brand:en": "UQ mobile",
      "brand:ja": "UQモバイル",
      "brand:wikidata": "Q11252091",
      "brand:wikipedia": "ja:UQコミュニケーションズ",
      "name": "UQモバイル",
      "name:en": "UQ mobile",
      "name:ja": "UQモバイル",
      "shop": "mobile_phone"
    }
  },
  "shop/mobile_phone|Verizon Wireless": {
    "locationSet": {"include": ["us"]},
    "matchNames": ["verizon"],
    "tags": {
      "brand": "Verizon Wireless",
      "brand:wikidata": "Q919641",
      "brand:wikipedia": "en:Verizon Wireless",
      "name": "Verizon Wireless",
      "shop": "mobile_phone"
    }
  },
  "shop/mobile_phone|Vidéotron": {
    "locationSet": {"include": ["ca"]},
    "tags": {
      "brand": "Vidéotron",
      "brand:wikidata": "Q2396830",
      "brand:wikipedia": "en:Vidéotron",
      "name": "Vidéotron",
      "shop": "mobile_phone"
    }
  },
  "shop/mobile_phone|Virgin Mobile~(Canada)": {
    "locationSet": {"include": ["ca"]},
    "tags": {
      "brand": "Virgin Mobile",
      "brand:wikidata": "Q3560641",
      "brand:wikipedia": "en:Virgin Mobile Canada",
      "name": "Virgin Mobile",
      "shop": "mobile_phone"
    }
  },
  "shop/mobile_phone|Vivo": {
    "locationSet": {"include": ["001"]},
    "tags": {
      "brand": "Vivo",
      "brand:wikidata": "Q18301787",
      "brand:wikipedia": "en:Vivo (technology company)",
      "name": "Vivo",
      "shop": "mobile_phone"
    }
  },
  "shop/mobile_phone|Vodafone": {
    "locationSet": {"include": ["001"]},
    "matchNames": ["vodafone shop"],
    "tags": {
      "brand": "Vodafone",
      "brand:wikidata": "Q122141",
      "brand:wikipedia": "en:Vodafone",
      "name": "Vodafone",
      "shop": "mobile_phone"
    }
  },
  "shop/mobile_phone|WIFI_ETECSA": {
    "locationSet": {"include": ["cu"]},
    "tags": {
      "brand": "WIFI_ETECSA",
      "brand:wikidata": "Q490323",
      "brand:wikipedia": "es:Empresa de Telecomunicaciones de Cuba",
      "name": "WIFI_ETECSA",
      "shop": "mobile_phone"
    }
  },
  "shop/mobile_phone|WOW! Mobile Boutique": {
    "locationSet": {"include": ["ca"]},
    "tags": {
      "brand": "WOW! Mobile Boutique",
      "brand:wikidata": "Q64847598",
      "name": "WOW! Mobile Boutique",
      "shop": "mobile_phone"
    }
  },
  "shop/mobile_phone|Wind": {
    "locationSet": {"include": ["it"]},
    "tags": {
      "brand": "Wind",
      "brand:wikidata": "Q650467",
      "brand:wikipedia": "en:WIND (Italy)",
      "name": "Wind",
      "shop": "mobile_phone"
    }
  },
  "shop/mobile_phone|Wind Hellas": {
    "locationSet": {"include": ["gr"]},
    "nomatch": ["shop/mobile_phone|Wind"],
    "tags": {
      "brand": "Wind Hellas",
      "brand:wikidata": "Q10711016",
      "brand:wikipedia": "el:WIND Hellas",
      "name": "Wind Hellas",
      "shop": "mobile_phone"
    }
  },
  "shop/mobile_phone|WirelessWave": {
    "locationSet": {"include": ["ca"]},
    "tags": {
      "brand": "WirelessWave",
      "brand:wikidata": "Q8026815",
      "name": "WirelessWave",
      "shop": "mobile_phone"
    }
  },
  "shop/mobile_phone|Xiaomi": {
    "locationSet": {"include": ["001"]},
    "tags": {
      "brand": "Xiaomi",
      "brand:wikidata": "Q1636958",
      "brand:wikipedia": "en:Xiaomi",
      "name": "Xiaomi",
      "shop": "mobile_phone"
    }
  },
  "shop/mobile_phone|Yoigo": {
    "locationSet": {"include": ["es"]},
    "tags": {
      "brand": "Yoigo",
      "brand:wikidata": "Q2630989",
      "brand:wikipedia": "en:Yoigo",
      "name": "Yoigo",
      "shop": "mobile_phone"
    }
  },
  "shop/mobile_phone|auショップ": {
    "locationSet": {"include": ["jp"]},
    "matchNames": ["au", "エーユー"],
    "tags": {
      "brand": "au",
      "brand:ja": "au",
      "brand:wikidata": "Q307110",
      "brand:wikipedia": "ja:Au (携帯電話)",
      "name": "auショップ",
      "name:en": "au",
      "name:ja": "auショップ",
      "shop": "mobile_phone"
    }
  },
  "shop/mobile_phone|lifecell": {
    "locationSet": {"include": ["001"]},
    "matchNames": ["магазин lifecell"],
    "matchTags": ["shop/telecommunication"],
    "tags": {
      "brand": "lifecell",
      "brand:wikidata": "Q1936895",
      "brand:wikipedia": "uk:Lifecell",
      "name": "lifecell",
      "shop": "mobile_phone"
    }
  },
  "shop/mobile_phone|Алло": {
    "locationSet": {"include": ["md", "ua"]},
    "tags": {
      "brand": "Алло",
      "brand:wikidata": "Q18683057",
      "brand:wikipedia": "uk:Алло (торгова мережа)",
      "name": "Алло",
      "shop": "mobile_phone"
    }
  },
  "shop/mobile_phone|Билайн": {
    "locationSet": {
      "include": ["kg", "kz", "ru"]
    },
    "nomatch": [
      "office/telecommunication|Beeline"
    ],
    "tags": {
      "brand": "Билайн",
      "brand:en": "Beeline",
      "brand:wikidata": "Q402880",
      "brand:wikipedia": "en:Beeline (brand)",
      "name": "Билайн",
      "name:en": "Beeline",
      "shop": "mobile_phone"
    }
  },
  "shop/mobile_phone|Евросеть": {
    "locationSet": {
      "include": ["by", "kz", "ru", "ua"]
    },
    "tags": {
      "brand": "Евросеть",
      "brand:en": "Euroset",
      "brand:wikidata": "Q65310",
      "brand:wikipedia": "en:Euroset",
      "name": "Евросеть",
      "name:en": "Euroset",
      "shop": "mobile_phone"
    }
  },
  "shop/mobile_phone|Київстар": {
    "locationSet": {"include": ["ua"]},
    "tags": {
      "brand": "Київстар",
      "brand:en": "Kyivstar",
      "brand:wikidata": "Q2288463",
      "brand:wikipedia": "en:Kyivstar",
      "name": "Київстар",
      "name:en": "Kyivstar",
      "shop": "mobile_phone"
    }
  },
  "shop/mobile_phone|МТС": {
    "locationSet": {
      "include": ["by", "ru", "ua"]
    },
    "nomatch": ["shop/telecommunication|МТС"],
    "tags": {
      "brand": "МТС",
      "brand:en": "MTS",
      "brand:wikidata": "Q1368919",
      "brand:wikipedia": "en:MTS (network provider)",
      "name": "МТС",
      "name:en": "MTS",
      "shop": "mobile_phone"
    }
  },
  "shop/mobile_phone|Мегафон": {
    "locationSet": {"include": ["ru", "tj"]},
    "tags": {
      "brand": "Мегафон",
      "brand:en": "MegaFon",
      "brand:wikidata": "Q1720713",
      "brand:wikipedia": "en:MegaFon",
      "name": "Мегафон",
      "name:en": "MegaFon",
      "shop": "mobile_phone"
    }
  },
  "shop/mobile_phone|НА'СВЯЗИ": {
    "locationSet": {"include": ["by"]},
    "tags": {
      "brand": "НА'СВЯЗИ",
      "name": "НА'СВЯЗИ",
      "shop": "mobile_phone"
    }
  },
  "shop/mobile_phone|Связной": {
    "locationSet": {
      "include": ["by", "ru", "uz"]
    },
    "tags": {
      "brand": "Связной",
      "brand:en": "Svyaznoy",
      "brand:wikidata": "Q65371",
      "brand:wikipedia": "en:Svyaznoy",
      "name": "Связной",
      "name:en": "Svyaznoy",
      "shop": "mobile_phone"
    }
  },
  "shop/mobile_phone|Теле2": {
    "locationSet": {"include": ["ru"]},
    "tags": {
      "brand": "Теле2",
      "brand:en": "Tele2",
      "brand:wikidata": "Q309865",
      "brand:wikipedia": "en:Tele2",
      "name": "Теле2",
      "name:en": "Tele2",
      "shop": "mobile_phone"
    }
  },
  "shop/mobile_phone|ソフトバンク": {
    "locationSet": {"include": ["jp"]},
    "tags": {
      "brand": "ソフトバンク",
      "brand:en": "SoftBank Telecom",
      "brand:ja": "ソフトバンク",
      "brand:wikidata": "Q7553832",
      "brand:wikipedia": "en:SoftBank Telecom",
      "name": "ソフトバンク",
      "name:en": "SoftBank Telecom",
      "name:ja": "ソフトバンク",
      "shop": "mobile_phone"
    }
  },
  "shop/mobile_phone|ソフトバンクショップ": {
    "locationSet": {"include": ["jp"]},
    "tags": {
      "brand": "ソフトバンクショップ",
      "brand:en": "SoftBankShop",
      "brand:ja": "ソフトバンクショップ",
      "brand:wikidata": "Q11315281",
      "brand:wikipedia": "ja:ソフトバンクショップ",
      "name": "ソフトバンクショップ",
      "name:en": "SoftBankShop",
      "name:ja": "ソフトバンクショップ",
      "shop": "mobile_phone"
    }
  },
  "shop/mobile_phone|テルル": {
    "locationSet": {"include": ["jp"]},
    "tags": {
      "brand": "テルル",
      "brand:en": "Teluru",
      "brand:ja": "テルル",
      "brand:wikidata": "Q91111384",
      "name": "テルル",
      "name:en": "Teluru",
      "name:ja": "テルル",
      "shop": "mobile_phone"
    }
  },
  "shop/mobile_phone|ドコモショップ": {
    "locationSet": {"include": ["jp"]},
    "matchNames": ["nttドコモ", "ｄｏｃｏｍｏ"],
    "tags": {
      "brand": "ドコモショップ",
      "brand:en": "DoCoMo Shop",
      "brand:ja": "ドコモショップ",
      "brand:wikidata": "Q853958",
      "brand:wikipedia": "ja:NTTドコモ",
      "name": "ドコモショップ",
      "name:en": "DoCoMo Shop",
      "name:ja": "ドコモショップ",
      "shop": "mobile_phone"
    }
  },
  "shop/mobile_phone|ワイモバイル": {
    "locationSet": {"include": ["jp"]},
    "matchNames": ["yahooモバイル", "ymobile"],
    "tags": {
      "brand": "ワイモバイル",
      "brand:en": "Y!mobile",
      "brand:ja": "ワイモバイル",
      "brand:wikidata": "Q5322556",
      "brand:wikipedia": "ja:ワイモバイル",
      "name": "ワイモバイル",
      "name:en": "Y!mobile",
      "name:ja": "ワイモバイル",
      "shop": "mobile_phone"
    }
  },
  "shop/mobile_phone|台灣大哥大": {
    "locationSet": {"include": ["tw"]},
    "tags": {
      "brand": "台灣大哥大",
      "brand:en": "Taiwan Mobile",
      "brand:wikidata": "Q5943259",
      "brand:wikipedia": "zh:台灣大哥大",
      "brand:zh": "台灣大哥大",
      "name": "台灣大哥大",
      "name:en": "Taiwan Mobile",
      "name:zh": "台灣大哥大",
      "shop": "mobile_phone"
    }
  }
}