{
  "shop/photo|Kamera Express": {
    "locationSet": {
      "include": ["be", "de", "nl"]
    },
    "tags": {
      "brand": "Kamera Express",
      "brand:wikidata": "Q77976400",
      "name": "Kamera Express",
      "shop": "photo"
    }
  },
  "shop/photo|Kodak Express": {
    "locationSet": {"include": ["001"]},
    "matchNames": ["kodak"],
    "tags": {
      "brand": "Kodak Express",
      "brand:wikidata": "Q6425126",
      "brand:wikipedia": "en:Kodak Express",
      "name": "Kodak Express",
      "shop": "photo"
    }
  },
  "shop/photo|Max Spielmann": {
    "locationSet": {"include": ["gb"]},
    "tags": {
      "brand": "Max Spielmann",
      "brand:wikidata": "Q76221051",
      "name": "Max Spielmann",
      "shop": "photo"
    }
  },
  "shop/photo|Snappy Snaps": {
    "locationSet": {"include": ["gb"]},
    "tags": {
      "brand": "Snappy Snaps",
      "brand:wikidata": "Q7547351",
      "brand:wikipedia": "en:Snappy Snaps",
      "name": "Snappy Snaps",
      "shop": "photo"
    }
  },
  "shop/photo|カメラのキタムラ": {
    "locationSet": {"include": ["jp"]},
    "tags": {
      "brand": "カメラのキタムラ",
      "brand:en": "Kitamura Camera",
      "brand:ja": "カメラのキタムラ",
      "brand:wikidata": "Q11294821",
      "brand:wikipedia": "ja:カメラのキタムラ",
      "name": "カメラのキタムラ",
      "name:en": "Kitamura Camera",
      "name:ja": "カメラのキタムラ",
      "shop": "photo"
    }
  },
  "shop/photo|コイデカメラ": {
    "locationSet": {"include": ["jp"]},
    "tags": {
      "brand": "コイデカメラ",
      "brand:en": "Koide Camera",
      "brand:ja": "コイデカメラ",
      "brand:wikidata": "Q11301829",
      "brand:wikipedia": "ja:コイデカメラ",
      "name": "コイデカメラ",
      "name:en": "Koide Camera",
      "name:ja": "コイデカメラ",
      "shop": "photo"
    }
  },
  "shop/photo|パレットプラザ": {
    "locationSet": {"include": ["jp"]},
    "tags": {
      "brand": "パレットプラザ",
      "brand:en": "Palette Plaza",
      "brand:ja": "パレットプラザ",
      "brand:wikidata": "Q11335403",
      "brand:wikipedia": "ja:プラザクリエイト",
      "name": "パレットプラザ",
      "name:en": "Palette Plaza",
      "name:ja": "パレットプラザ",
      "shop": "photo"
    }
  }
}