{
  "shop/storage_rental|Big Yellow Self Storage": {
    "locationSet": {"include": ["gb"]},
    "tags": {
      "brand": "Big Yellow Self Storage",
      "brand:wikidata": "Q4906703",
      "brand:wikipedia": "en:Big Yellow Group",
      "name": "Big Yellow Self Storage",
      "shop": "storage_rental"
    }
  },
  "shop/storage_rental|CubeSmart": {
    "locationSet": {"include": ["us"]},
    "tags": {
      "brand": "CubeSmart",
      "brand:wikidata": "Q5192200",
      "brand:wikipedia": "en:CubeSmart",
      "name": "CubeSmart",
      "shop": "storage_rental"
    }
  },
  "shop/storage_rental|Extra Space Storage": {
    "locationSet": {"include": ["us"]},
    "matchNames": ["extra space"],
    "tags": {
      "brand": "Extra Space Storage",
      "brand:wikidata": "Q5422162",
      "brand:wikipedia": "en:Extra Space Storage",
      "name": "Extra Space Storage",
      "shop": "storage_rental"
    }
  },
  "shop/storage_rental|Life Storage": {
    "locationSet": {"include": ["001"]},
    "tags": {
      "brand": "Life Storage",
      "name": "Life Storage",
      "shop": "storage_rental"
    }
  },
  "shop/storage_rental|Lok'nStore": {
    "locationSet": {"include": ["gb"]},
    "tags": {
      "brand": "Lok'nStore",
      "brand:wikidata": "Q6668484",
      "brand:wikipedia": "en:Lok'nStore",
      "name": "Lok'nStore",
      "shop": "storage_rental"
    }
  },
  "shop/storage_rental|Public Storage": {
    "locationSet": {"include": ["ca", "us"]},
    "matchTags": ["shop/storage_units"],
    "tags": {
      "brand": "Public Storage",
      "brand:wikidata": "Q1156045",
      "brand:wikipedia": "en:Public Storage",
      "name": "Public Storage",
      "shop": "storage_rental"
    }
  },
  "shop/storage_rental|Safestore": {
    "locationSet": {"include": ["gb"]},
    "tags": {
      "brand": "Safestore",
      "brand:wikidata": "Q20713915",
      "brand:wikipedia": "en:Safestore",
      "name": "Safestore",
      "shop": "storage_rental"
    }
  },
  "shop/storage_rental|U-Haul": {
    "locationSet": {"include": ["ca", "us"]},
    "matchNames": ["uhaul neighborhood dealer"],
    "nomatch": ["shop/rental|U-Haul"],
    "tags": {
      "brand": "U-Haul",
      "brand:wikidata": "Q7862902",
      "brand:wikipedia": "en:U-Haul",
      "name": "U-Haul",
      "shop": "storage_rental"
    }
  },
  "shop/storage_rental|U-SPACE": {
    "locationSet": {"include": ["jp"]},
    "tags": {
      "brand": "U-SPACE",
      "brand:en": "U-SPACE",
      "brand:ja": "ユースペース",
      "brand:wikidata": "Q93909725",
      "name": "U-SPACE",
      "name:en": "U-SPACE",
      "name:ja": "ユースペース",
      "shop": "storage_rental"
    }
  },
  "shop/storage_rental|UK Storage Company": {
    "locationSet": {"include": ["gb"]},
    "tags": {
      "brand": "UK Storage Company",
      "brand:wikidata": "Q87411468",
      "name": "UK Storage Company",
      "shop": "storage_rental"
    }
  },
  "shop/storage_rental|ハローストレージ": {
    "locationSet": {"include": ["jp"]},
    "tags": {
      "brand": "ハローストレージ",
      "brand:en": "Hello Storage",
      "brand:ja": "ハローストレージ",
      "brand:wikidata": "Q93908236",
      "name": "ハローストレージ",
      "name:en": "Hello Storage",
      "name:ja": "ハローストレージ",
      "shop": "storage_rental"
    }
  },
  "shop/storage_rental|ライゼボックス": {
    "locationSet": {"include": ["jp"]},
    "matchNames": ["ライゼ"],
    "tags": {
      "brand": "ライゼボックス",
      "brand:en": "Reise Box",
      "brand:ja": "ライゼボックス",
      "brand:wikidata": "Q11346377",
      "brand:wikipedia": "ja:ライゼ",
      "name": "ライゼボックス",
      "name:en": "Reise Box",
      "name:ja": "ライゼボックス",
      "shop": "storage_rental"
    }
  }
}