{
  "shop/travel_agency|Alltours": {
    "locationSet": {"include": ["de"]},
    "tags": {
      "brand": "Alltours",
      "brand:wikidata": "Q2649481",
      "brand:wikipedia": "de:Alltours",
      "name": "Alltours",
      "shop": "travel_agency"
    }
  },
  "shop/travel_agency|American Automobile Association": {
    "locationSet": {"include": ["us"]},
    "matchTags": [
      "office/travel_agent",
      "shop/car"
    ],
    "nomatch": ["office/insurance|AAA Insurance"],
    "tags": {
      "brand": "American Automobile Association",
      "brand:wikidata": "Q463436",
      "brand:wikipedia": "en:American Automobile Association",
      "name": "American Automobile Association",
      "shop": "travel_agency",
      "short_name": "AAA"
    }
  },
  "shop/travel_agency|Coral Travel": {
    "locationSet": {
      "include": ["pl", "ru", "ua"]
    },
    "tags": {
      "brand": "Coral Travel",
      "brand:wikidata": "Q58011479",
      "name": "Coral Travel",
      "shop": "travel_agency"
    }
  },
  "shop/travel_agency|D-reizen": {
    "locationSet": {"include": ["nl"]},
    "tags": {
      "brand": "D-reizen",
      "brand:wikidata": "Q2445498",
      "brand:wikipedia": "nl:D-reizen",
      "name": "D-reizen",
      "shop": "travel_agency"
    }
  },
  "shop/travel_agency|DER Reisebüro": {
    "locationSet": {"include": ["de"]},
    "matchNames": ["der deutsches reisebüro"],
    "tags": {
      "brand": "DER Reisebüro",
      "brand:wikidata": "Q56729186",
      "brand:wikipedia": "de:Deutsches Reisebüro",
      "name": "DER Reisebüro",
      "shop": "travel_agency"
    }
  },
  "shop/travel_agency|Expedia CruiseShipCenters": {
    "locationSet": {"include": ["ca", "us"]},
    "tags": {
      "brand": "Expedia CruiseShipCenters",
      "brand:wikidata": "Q5189985",
      "brand:wikipedia": "en:Expedia CruiseShipCenters",
      "name": "Expedia CruiseShipCenters",
      "shop": "travel_agency"
    }
  },
  "shop/travel_agency|First Reisebüro": {
    "locationSet": {"include": ["de"]},
    "tags": {
      "brand": "First Reisebüro",
      "brand:wikidata": "Q573103",
      "brand:wikipedia": "en:TUI AG",
      "name": "First Reisebüro",
      "shop": "travel_agency"
    }
  },
  "shop/travel_agency|Flight Centre": {
    "locationSet": {"include": ["001"]},
    "tags": {
      "brand": "Flight Centre",
      "brand:wikidata": "Q5459202",
      "brand:wikipedia": "en:Flight Centre",
      "name": "Flight Centre",
      "shop": "travel_agency"
    }
  },
  "shop/travel_agency|Halcón Viajes": {
    "locationSet": {"include": ["es"]},
    "tags": {
      "brand": "Halcón Viajes",
      "brand:wikidata": "Q57591939",
      "name": "Halcón Viajes",
      "shop": "travel_agency"
    }
  },
  "shop/travel_agency|Havas Voyages": {
    "locationSet": {"include": ["fr"]},
    "tags": {
      "brand": "Havas Voyages",
      "brand:wikidata": "Q57628091",
      "name": "Havas Voyages",
      "shop": "travel_agency"
    }
  },
  "shop/travel_agency|Hays Travel": {
    "locationSet": {"include": ["gb"]},
    "tags": {
      "brand": "Hays Travel",
      "brand:wikidata": "Q70250954",
      "brand:wikipedia": "en:Hays Travel",
      "name": "Hays Travel",
      "shop": "travel_agency"
    }
  },
  "shop/travel_agency|JTB": {
    "locationSet": {"include": ["jp"]},
    "tags": {
      "brand": "JTB",
      "brand:wikidata": "Q6109053",
      "brand:wikipedia": "ja:JTB",
      "name": "JTB",
      "official_name": "日本交通公社",
      "official_name:en": "Japan Travel Bureau",
      "shop": "travel_agency"
    }
  },
  "shop/travel_agency|Kuoni": {
    "locationSet": {"include": ["001"]},
    "tags": {
      "brand": "Kuoni",
      "brand:wikidata": "Q684355",
      "brand:wikipedia": "en:Kuoni Travel",
      "name": "Kuoni",
      "shop": "travel_agency"
    }
  },
  "shop/travel_agency|Last Minute Tour": {
    "locationSet": {"include": ["it"]},
    "tags": {
      "brand": "Last Minute Tour",
      "name": "Last Minute Tour",
      "shop": "travel_agency"
    }
  },
  "shop/travel_agency|Liberty Travel": {
    "locationSet": {"include": ["us"]},
    "tags": {
      "brand": "Liberty Travel",
      "brand:wikidata": "Q17031665",
      "brand:wikipedia": "en:Liberty Travel",
      "name": "Liberty Travel",
      "shop": "travel_agency"
    }
  },
  "shop/travel_agency|Miles Morgan Travel": {
    "locationSet": {"include": ["gb"]},
    "tags": {
      "brand": "Miles Morgan Travel",
      "brand:wikidata": "Q83179278",
      "name": "Miles Morgan Travel",
      "shop": "travel_agency"
    }
  },
  "shop/travel_agency|Neckermann Reisen": {
    "locationSet": {"include": ["de"]},
    "tags": {
      "brand": "Neckermann Reisen",
      "brand:wikidata": "Q17300280",
      "name": "Neckermann Reisen",
      "shop": "travel_agency"
    }
  },
  "shop/travel_agency|Nouvelles Frontières": {
    "locationSet": {"include": ["fr"]},
    "tags": {
      "brand": "Nouvelles Frontières",
      "brand:wikidata": "Q3117506",
      "brand:wikipedia": "fr:Nouvelles Frontières",
      "name": "Nouvelles Frontières",
      "shop": "travel_agency"
    }
  },
  "shop/travel_agency|Reiseland": {
    "locationSet": {"include": ["de"]},
    "tags": {
      "brand": "Reiseland",
      "brand:wikidata": "Q40387610",
      "brand:wikipedia": "de:OTTO Reisen",
      "name": "Reiseland",
      "shop": "travel_agency"
    }
  },
  "shop/travel_agency|STA Travel": {
    "locationSet": {"include": ["001"]},
    "tags": {
      "brand": "STA Travel",
      "brand:wikidata": "Q2208025",
      "brand:wikipedia": "en:STA Travel",
      "name": "STA Travel",
      "shop": "travel_agency"
    }
  },
  "shop/travel_agency|Selectour": {
    "locationSet": {"include": ["fr"]},
    "tags": {
      "brand": "Selectour",
      "brand:wikidata": "Q3478073",
      "brand:wikipedia": "fr:Selectour",
      "name": "Selectour",
      "shop": "travel_agency"
    }
  },
  "shop/travel_agency|TUI~(Group)": {
    "locationSet": {"include": ["001"]},
    "matchNames": ["tui reisecenter"],
    "tags": {
      "brand": "TUI",
      "brand:wikidata": "Q573103",
      "brand:wikipedia": "en:TUI AG",
      "name": "TUI",
      "shop": "travel_agency"
    }
  },
  "shop/travel_agency|TUI~(UK)": {
    "locationSet": {"include": ["gb"]},
    "matchNames": ["thomson"],
    "tags": {
      "brand": "TUI",
      "brand:wikidata": "Q7795876",
      "brand:wikipedia": "en:TUI UK",
      "name": "TUI",
      "shop": "travel_agency"
    }
  },
  "shop/travel_agency|The Co-operative Travel": {
    "locationSet": {"include": ["gb"]},
    "tags": {
      "brand": "The Co-operative Travel",
      "brand:wikidata": "Q7726526",
      "brand:wikipedia": "en:The Co-operative Travel",
      "name": "The Co-operative Travel",
      "shop": "travel_agency"
    }
  },
  "shop/travel_agency|Thomas Cook": {
    "locationSet": {"include": ["001"]},
    "tags": {
      "brand": "Thomas Cook",
      "brand:wikidata": "Q2141800",
      "brand:wikipedia": "en:Thomas Cook Group",
      "name": "Thomas Cook",
      "shop": "travel_agency"
    }
  },
  "shop/travel_agency|Turkish Airlines": {
    "locationSet": {"include": ["001"]},
    "tags": {
      "brand": "Turkish Airlines",
      "brand:wikidata": "Q4548",
      "brand:wikipedia": "en:Turkish Airlines",
      "name": "Turkish Airlines",
      "shop": "travel_agency"
    }
  },
  "shop/travel_agency|ltur": {
    "locationSet": {"include": ["de"]},
    "tags": {
      "brand": "ltur",
      "brand:wikidata": "Q519040",
      "brand:wikipedia": "de:L’TUR",
      "name": "ltur",
      "shop": "travel_agency"
    }
  },
  "shop/travel_agency|Поехали с нами": {
    "locationSet": {"include": ["ua"]},
    "tags": {
      "brand": "Поехали с нами",
      "brand:wikidata": "Q25439141",
      "brand:wikipedia": "uk:Поїхали з нами",
      "name": "Поехали с нами",
      "shop": "travel_agency"
    }
  },
  "shop/travel_agency|エイチ・アイ・エス": {
    "locationSet": {"include": ["jp"]},
    "tags": {
      "alt_name:en": "HIS",
      "brand": "エイチ・アイ・エス",
      "brand:en": "H.I.S.",
      "brand:ja": "エイチ・アイ・エス",
      "brand:wikidata": "Q1452225",
      "brand:wikipedia": "ja:エイチ・アイ・エス",
      "name": "エイチ・アイ・エス",
      "name:en": "H.I.S.",
      "name:ja": "エイチ・アイ・エス",
      "shop": "travel_agency"
    }
  },
  "shop/travel_agency|日本旅行": {
    "locationSet": {"include": ["jp"]},
    "tags": {
      "brand": "日本旅行",
      "brand:en": "Nippon Travel Agency",
      "brand:ja": "日本旅行",
      "brand:ja-Hira": "にほんりょこう",
      "brand:ja-Latn": "Nihon Ryokō",
      "brand:wikidata": "Q11508225",
      "brand:wikipedia": "ja:日本旅行",
      "name": "日本旅行",
      "name:en": "Nippon Travel Agency",
      "name:ja": "日本旅行",
      "name:ja-Hira": "にほんりょこう",
      "name:ja-Latn": "Nihon Ryokō",
      "shop": "travel_agency",
      "short_name": "日旅",
      "short_name:en": "NTA",
      "short_name:ja": "日旅"
    }
  },
  "shop/travel_agency|近畿日本ツーリスト": {
    "locationSet": {"include": ["jp"]},
    "tags": {
      "brand": "近畿日本ツーリスト",
      "brand:en": "KNT",
      "brand:ja": "近畿日本ツーリスト",
      "brand:wikidata": "Q11638632",
      "brand:wikipedia": "ja:近畿日本ツーリスト",
      "name": "近畿日本ツーリスト",
      "name:en": "KNT",
      "name:ja": "近畿日本ツーリスト",
      "official_name:en": "Kinki Nippon Tourist",
      "shop": "travel_agency"
    }
  }
}