{
  "leisure/adult_gaming_centre|P ARK": {
    "locationSet": {"include": ["jp"]},
    "tags": {
      "brand": "P ARK",
      "brand:en": "P ARK",
      "brand:ja": "ピーアーク",
      "brand:wikidata": "Q11331699",
      "brand:wikipedia": "ja:ピーアークホールディングス",
      "gambling": "pachinko",
      "leisure": "adult_gaming_centre",
      "name": "P ARK",
      "name:en": "P ARK",
      "name:ja": "ピーアーク"
    }
  },
  "leisure/adult_gaming_centre|ガイア": {
    "locationSet": {"include": ["jp"]},
    "tags": {
      "brand": "ガイア",
      "brand:en": "GAIA",
      "brand:ja": "ガイア",
      "brand:wikidata": "Q11295831",
      "brand:wikipedia": "ja:ガイア (パチンコ)",
      "gambling": "pachinko",
      "leisure": "adult_gaming_centre",
      "name": "ガイア",
      "name:en": "GAIA",
      "name:ja": "ガイア"
    }
  },
  "leisure/adult_gaming_centre|ダイナム": {
    "locationSet": {"include": ["jp"]},
    "tags": {
      "brand": "ダイナム",
      "brand:en": "Dynam",
      "brand:ja": "ダイナム",
      "brand:wikidata": "Q10846977",
      "brand:wikipedia": "ja:ダイナム",
      "gambling": "pachinko",
      "leisure": "adult_gaming_centre",
      "name": "ダイナム",
      "name:en": "Dynam",
      "name:ja": "ダイナム"
    }
  },
  "leisure/adult_gaming_centre|マルハン": {
    "locationSet": {"include": ["jp"]},
    "tags": {
      "brand": "マルハン",
      "brand:en": "Maruhan",
      "brand:ja": "マルハン",
      "brand:wikidata": "Q1905948",
      "brand:wikipedia": "ja:マルハン",
      "gambling": "pachinko",
      "leisure": "adult_gaming_centre",
      "name": "マルハン",
      "name:en": "Maruhan",
      "name:ja": "マルハン"
    }
  }
}