{
  "amenity/car_sharing|Bluely": {
    "locationSet": {"include": ["fr"]},
    "matchNames": ["station bluely"],
    "tags": {
      "amenity": "car_sharing",
      "brand": "Bluely",
      "brand:wikidata": "Q16039715",
      "brand:wikipedia": "fr:Bluely",
      "name": "Bluely"
    }
  },
  "amenity/car_sharing|Enterprise Car Club": {
    "locationSet": {"include": ["gb"]},
    "matchNames": ["city car club"],
    "tags": {
      "amenity": "car_sharing",
      "brand": "Enterprise Car Club",
      "brand:wikidata": "Q5123055",
      "brand:wikipedia": "en:Enterprise Car Club",
      "name": "Enterprise Car Club"
    }
  },
  "amenity/car_sharing|Greenwheels": {
    "locationSet": {"include": ["de", "nl"]},
    "tags": {
      "amenity": "car_sharing",
      "brand": "Greenwheels",
      "brand:wikidata": "Q316782",
      "brand:wikipedia": "en:Greenwheels",
      "name": "Greenwheels"
    }
  },
  "amenity/car_sharing|Zipcar": {
    "locationSet": {"include": ["001"]},
    "tags": {
      "amenity": "car_sharing",
      "brand": "Zipcar",
      "brand:wikidata": "Q1069924",
      "brand:wikipedia": "en:Zipcar",
      "name": "Zipcar"
    }
  },
  "amenity/car_sharing|stadtmobil": {
    "locationSet": {"include": ["de"]},
    "matchNames": [
      "stadtmobil carsharing-station"
    ],
    "tags": {
      "amenity": "car_sharing",
      "brand": "stadtmobil",
      "brand:wikidata": "Q2327629",
      "brand:wikipedia": "en:Stadtmobil",
      "name": "stadtmobil"
    }
  },
  "amenity/car_sharing|teilAuto": {
    "locationSet": {"include": ["de"]},
    "tags": {
      "amenity": "car_sharing",
      "brand": "teilAuto",
      "brand:wikidata": "Q2400658",
      "brand:wikipedia": "de:TeilAuto",
      "name": "teilAuto"
    }
  },
  "amenity/car_sharing|タイムズカーシェア": {
    "locationSet": {"include": ["jp"]},
    "tags": {
      "amenity": "car_sharing",
      "brand": "タイムズカーシェア",
      "brand:en": "Times Car Share",
      "brand:ja": "タイムズカーシェア",
      "brand:wikidata": "Q17987881",
      "brand:wikipedia": "ja:タイムズカーシェア",
      "name": "タイムズカーシェア",
      "name:en": "Times Car Share",
      "name:ja": "タイムズカーシェア"
    }
  }
}