{
  "amenity/charging_station|Blink": {
    "locationSet": {"include": ["us"]},
    "tags": {
      "amenity": "charging_station",
      "brand": "Blink",
      "brand:wikidata": "Q62065645",
      "name": "Blink"
    }
  },
  "amenity/charging_station|ChargePoint": {
    "locationSet": {"include": ["001"]},
    "tags": {
      "amenity": "charging_station",
      "brand": "ChargePoint",
      "brand:wikidata": "Q5176149",
      "brand:wikipedia": "en:ChargePoint",
      "name": "ChargePoint"
    }
  },
  "amenity/charging_station|Chargy": {
    "locationSet": {"include": ["lu"]},
    "tags": {
      "amenity": "charging_station",
      "brand": "Chargy",
      "brand:wikidata": "Q62702950",
      "brand:wikipedia": "lb:Chargy",
      "name": "Chargy"
    }
  },
  "amenity/charging_station|Circuit électrique": {
    "locationSet": {"include": ["ca"]},
    "tags": {
      "amenity": "charging_station",
      "brand": "Circuit électrique",
      "brand:en": "Electric Circuit",
      "brand:fr": "Circuit électrique",
      "brand:wikidata": "Q24934590",
      "brand:wikipedia": "fr:Le Circuit électrique",
      "name": "Circuit électrique",
      "name:en": "Electric Circuit",
      "name:fr": "Circuit électrique"
    }
  },
  "amenity/charging_station|E-Bike Ladestation": {
    "locationSet": {"include": ["001"]},
    "tags": {
      "amenity": "charging_station",
      "brand": "E-Bike Ladestation",
      "name": "E-Bike Ladestation"
    }
  },
  "amenity/charging_station|E-WALD": {
    "locationSet": {"include": ["de"]},
    "matchNames": ["e-wald ladestation"],
    "tags": {
      "amenity": "charging_station",
      "brand": "E-WALD",
      "brand:wikidata": "Q61804335",
      "name": "E-WALD"
    }
  },
  "amenity/charging_station|Enel": {
    "locationSet": {"include": ["it"]},
    "matchNames": ["enel - stazione di ricarica"],
    "tags": {
      "amenity": "charging_station",
      "brand": "Enel",
      "brand:wikidata": "Q651222",
      "brand:wikipedia": "en:Enel",
      "name": "Enel"
    }
  },
  "amenity/charging_station|Enel X": {
    "locationSet": {"include": ["001"]},
    "tags": {
      "amenity": "charging_station",
      "brand": "Enel X",
      "name": "Enel X"
    }
  },
  "amenity/charging_station|Enel x Metbus": {
    "locationSet": {"include": ["cl"]},
    "tags": {
      "amenity": "charging_station",
      "brand": "Enel x Metbus",
      "name": "Enel x Metbus"
    }
  },
  "amenity/charging_station|FLO": {
    "locationSet": {"include": ["ca", "us"]},
    "nomatch": ["shop/shoes|FLO"],
    "tags": {
      "amenity": "charging_station",
      "brand": "FLO",
      "brand:wikidata": "Q64971203",
      "name": "FLO"
    }
  },
  "amenity/charging_station|Gogoro 電池交換站": {
    "locationSet": {"include": ["001"]},
    "tags": {
      "amenity": "charging_station",
      "brand": "Gogoro 電池交換站",
      "name": "Gogoro 電池交換站"
    }
  },
  "amenity/charging_station|InCharge": {
    "locationSet": {"include": ["001"]},
    "matchNames": ["vattenfall"],
    "tags": {
      "amenity": "charging_station",
      "brand": "InCharge",
      "brand:wikidata": "Q71041027",
      "name": "InCharge"
    }
  },
  "amenity/charging_station|Innogy": {
    "locationSet": {"include": ["de"]},
    "matchNames": ["rwe"],
    "tags": {
      "amenity": "charging_station",
      "brand": "Innogy",
      "brand:wikidata": "Q2124721",
      "brand:wikipedia": "de:Innogy",
      "name": "Innogy"
    }
  },
  "amenity/charging_station|Source London": {
    "locationSet": {"include": ["gb"]},
    "tags": {
      "amenity": "charging_station",
      "brand": "Source London",
      "brand:wikidata": "Q7565133",
      "brand:wikipedia": "en:Source London",
      "name": "Source London"
    }
  },
  "amenity/charging_station|Tesla Supercharger": {
    "locationSet": {"include": ["001"]},
    "tags": {
      "amenity": "charging_station",
      "brand": "Tesla Supercharger",
      "brand:wikidata": "Q17089620",
      "brand:wikipedia": "en:Tesla Supercharger",
      "name": "Tesla Supercharger"
    }
  },
  "amenity/charging_station|bike-energy": {
    "locationSet": {
      "include": [
        "at",
        "ch",
        "de",
        "fr",
        "it",
        "lu"
      ]
    },
    "matchNames": ["bike-energy ladestation"],
    "tags": {
      "amenity": "charging_station",
      "brand": "bike-energy",
      "brand:wikidata": "Q67770877",
      "name": "bike-energy"
    }
  },
  "amenity/charging_station|eVgo": {
    "locationSet": {"include": ["us"]},
    "tags": {
      "amenity": "charging_station",
      "brand": "eVgo",
      "brand:wikidata": "Q61803820",
      "name": "eVgo"
    }
  },
  "amenity/charging_station|東光高岳": {
    "locationSet": {"include": ["jp"]},
    "tags": {
      "amenity": "charging_station",
      "brand": "東光高岳",
      "brand:en": "Takaoka Toko",
      "brand:ja": "東光高岳",
      "brand:wikidata": "Q17220263",
      "brand:wikipedia": "ja:東光高岳",
      "name": "東光高岳",
      "name:en": "Takaoka Toko",
      "name:ja": "東光高岳"
    }
  }
}