{
  "amenity/childcare|Kids 'R' Kids": {
    "locationSet": {"include": ["us"]},
    "matchNames": ["kids are kids"],
    "tags": {
      "after_school": "yes",
      "amenity": "childcare",
      "brand": "Kids 'R' Kids",
      "brand:wikidata": "Q65560342",
      "grades": "PK",
      "name": "Kids 'R' Kids",
      "nursery": "yes",
      "official_name": "Kids 'R' Kids Learning Academies",
      "preschool": "yes"
    }
  },
  "amenity/childcare|YMCA Child Care": {
    "locationSet": {"include": ["us"]},
    "matchNames": [
      "ymca",
      "ymca child care center"
    ],
    "tags": {
      "amenity": "childcare",
      "brand": "YMCA",
      "brand:wikidata": "Q157169",
      "brand:wikipedia": "en:YMCA",
      "name": "YMCA Child Care"
    }
  },
  "amenity/childcare|ちびっこランド": {
    "locationSet": {"include": ["jp"]},
    "tags": {
      "amenity": "childcare",
      "brand": "ちびっこランド",
      "brand:en": "Chibikko Land",
      "brand:ja": "ちびっこランド",
      "brand:wikidata": "Q91948998",
      "name": "ちびっこランド",
      "name:en": "Chibikko Land",
      "name:ja": "ちびっこランド"
    }
  },
  "amenity/childcare|グローバルキッズ": {
    "locationSet": {"include": ["jp"]},
    "tags": {
      "amenity": "childcare",
      "brand": "グローバルキッズ",
      "brand:en": "Global Kids",
      "brand:ja": "グローバルキッズ",
      "brand:wikidata": "Q91950777",
      "name": "グローバルキッズ",
      "name:en": "Global Kids",
      "name:ja": "グローバルキッズ"
    }
  },
  "amenity/childcare|ポポラー": {
    "locationSet": {"include": ["jp"]},
    "tags": {
      "amenity": "childcare",
      "brand": "ポポラー",
      "brand:en": "Popolar",
      "brand:ja": "ポポラー",
      "brand:wikidata": "Q91945087",
      "name": "ポポラー",
      "name:en": "Popolar",
      "name:ja": "ポポラー"
    }
  }
}