{
  "amenity/clinic|Aid Post": {
    "locationSet": {"include": ["001"]},
    "tags": {
      "amenity": "clinic",
      "brand": "Aid Post",
      "name": "Aid Post"
    }
  },
  "amenity/clinic|Asepeyo": {
    "locationSet": {"include": ["es"]},
    "nomatch": ["office/insurance|Asepeyo"],
    "tags": {
      "amenity": "clinic",
      "brand": "Asepeyo",
      "brand:wikidata": "Q11906879",
      "brand:wikipedia": "es:Asepeyo",
      "healthcare": "clinic",
      "name": "Asepeyo"
    }
  },
  "amenity/clinic|CityMD": {
    "locationSet": {"include": ["us"]},
    "tags": {
      "amenity": "clinic",
      "brand": "CityMD",
      "brand:wikidata": "Q22295471",
      "brand:wikipedia": "en:CityMD",
      "healthcare": "clinic",
      "name": "CityMD"
    }
  },
  "amenity/clinic|DaVita Dialysis": {
    "locationSet": {"include": ["us"]},
    "matchNames": [
      "davita",
      "davita dialysis center",
      "davita kidney care"
    ],
    "tags": {
      "amenity": "clinic",
      "brand": "DaVita Dialysis",
      "brand:wikidata": "Q5207184",
      "healthcare": "dialysis",
      "healthcare:speciality": "dialysis",
      "name": "DaVita Dialysis"
    }
  },
  "amenity/clinic|Dialysis Clinic": {
    "locationSet": {"include": ["us"]},
    "matchNames": ["dialysis clinic inc"],
    "tags": {
      "amenity": "clinic",
      "brand": "Dialysis Clinic",
      "brand:wikidata": "Q5270633",
      "brand:wikipedia": "en:Dialysis Clinic, Inc.",
      "healthcare": "dialysis",
      "healthcare:speciality": "dialysis",
      "name": "Dialysis Clinic",
      "short_name": "DCI"
    }
  },
  "amenity/clinic|Fresenius Kidney Care": {
    "locationSet": {"include": ["us"]},
    "tags": {
      "amenity": "clinic",
      "brand": "Fresenius Kidney Care",
      "brand:wikidata": "Q650259",
      "brand:wikipedia": "en:Fresenius Medical Care",
      "healthcare": "dialysis",
      "healthcare:speciality": "dialysis",
      "name": "Fresenius Kidney Care"
    }
  },
  "amenity/clinic|Fresenius Medical Care": {
    "locationSet": {"include": ["us"]},
    "tags": {
      "amenity": "clinic",
      "brand": "Fresenius Medical Care",
      "brand:wikidata": "Q650259",
      "brand:wikipedia": "en:Fresenius Medical Care",
      "healthcare": "dialysis",
      "healthcare:speciality": "dialysis",
      "name": "Fresenius Medical Care"
    }
  },
  "amenity/clinic|Klinik Mediviron": {
    "locationSet": {"include": ["my"]},
    "matchNames": ["mediveron"],
    "tags": {
      "amenity": "clinic",
      "brand": "Klinik Mediviron",
      "brand:wikidata": "Q97498892",
      "brand:wikipedia": "ms:Klinik Mediviron",
      "healthcare": "clinic",
      "name": "Klinik Mediviron",
      "name:ms": "Klinik Mediviron",
      "name:zh": "马安药房"
    }
  },
  "amenity/clinic|Planned Parenthood": {
    "locationSet": {"include": ["us"]},
    "matchTags": [
      "amenity/doctors",
      "amenity/social_facility"
    ],
    "tags": {
      "amenity": "clinic",
      "brand": "Planned Parenthood",
      "brand:wikidata": "Q2553262",
      "brand:wikipedia": "en:Planned Parenthood",
      "healthcare": "counselling",
      "healthcare:counselling": "antenatal;sexual",
      "name": "Planned Parenthood"
    }
  },
  "amenity/clinic|Posyandu": {
    "locationSet": {"include": ["001"]},
    "tags": {
      "amenity": "clinic",
      "brand": "Posyandu",
      "name": "Posyandu"
    }
  },
  "amenity/clinic|Puskesmas": {
    "locationSet": {"include": ["001"]},
    "tags": {
      "amenity": "clinic",
      "brand": "Puskesmas",
      "name": "Puskesmas"
    }
  },
  "amenity/clinic|Puskesmas Pembantu": {
    "locationSet": {"include": ["001"]},
    "tags": {
      "amenity": "clinic",
      "brand": "Puskesmas Pembantu",
      "name": "Puskesmas Pembantu"
    }
  },
  "amenity/clinic|Satellite Healthcare": {
    "locationSet": {"include": ["us"]},
    "matchNames": [
      "satellite",
      "satellite dialysis"
    ],
    "tags": {
      "amenity": "clinic",
      "brand": "Satellite Healthcare",
      "brand:wikidata": "Q50039787",
      "healthcare": "dialysis",
      "healthcare:speciality": "dialysis",
      "name": "Satellite Healthcare"
    }
  },
  "amenity/clinic|Terveystalo": {
    "locationSet": {"include": ["fi"]},
    "tags": {
      "amenity": "clinic",
      "brand": "Terveystalo",
      "brand:wikidata": "Q11897034",
      "brand:wikipedia": "fi:Terveystalo",
      "healthcare": "clinic",
      "name": "Terveystalo"
    }
  },
  "amenity/clinic|VA Clinic": {
    "locationSet": {"include": ["us"]},
    "matchNames": [
      "department of veterans affairs clinic",
      "veterans administration",
      "veterans administration clinic",
      "veterans affairs",
      "veterans affairs clinic"
    ],
    "tags": {
      "amenity": "clinic",
      "brand": "VA",
      "brand:wikidata": "Q6580225",
      "brand:wikipedia": "en:Veterans Health Administration",
      "healthcare": "clinic",
      "healthcare:for": "veterans",
      "name": "VA Clinic",
      "short_name": "VA"
    }
  },
  "amenity/clinic|ZoomCare": {
    "locationSet": {"include": ["us"]},
    "tags": {
      "amenity": "clinic",
      "brand": "ZoomCare",
      "brand:wikidata": "Q64120374",
      "brand:wikipedia": "en:ZoomCare",
      "healthcare": "clinic",
      "name": "ZoomCare",
      "urgent_care": "yes"
    }
  },
  "amenity/clinic|МИБС": {
    "locationSet": {"include": ["ru"]},
    "matchTags": ["shop/medical_supply"],
    "tags": {
      "amenity": "clinic",
      "brand": "МИБС",
      "healthcare": "clinic",
      "healthcare:speciality": "diagnostic_radiology",
      "name": "МИБС"
    }
  }
}